SiteCode,Name_EN,Name_FR,Latitude,Longitude,AltMin,AltMax,Area,DateAssessed,PercentProtected,BoundaryGeneralized,Level,CriteriaMet,ConservationActions,Landcover,Province,Species
AB002,"Peace-Athabasca Delta","Peace-Athabasca Delta",58.65,-111.23,250,250,7584.605,"2022-08-18 00:00:00",94,0,Global,"Global: Aggregations of birds (D1). National: Aggregations of birds (D1)","Site/area protection, Legislation, Site/area management","Temperate or sub-polar shrubland(2.85%), Water(34.59%), Temperate or sub-polar grassland(3.3%), Temperate or sub-polar needleleaf forest(9.05%), Mixed forest(13.19%), Wetland(35.4%), ",Alberta,"Tundra Swan(Cygnus columbianus), "
AB079,"Frank Lake (south)","Frank Lake (south)",50.55,-113.71,1002,1042,100.53,"2022-08-18 00:00:00",0,0,Global,"Global: D1 - Demographic aggregations (birds). National: A1 - Threatened species (birds); D1 - Demographic aggregations (birds)","Awareness & communications, Site/area management, Site/area protection","Temperate or sub-polar grassland(12.11%), Temperate or sub-polar needleleaf forest(0.24%), Temperate or sub-polar shrubland(1.39%), Barren lands(0.09%), Wetland(0.01%), Water(18.17%), Cropland(64.6%), Urban(3.39%), ",Alberta,"Franklin's Gull(Leucophaeus pipixcan), Trumpeter Swan(Cygnus buccinator), Bank Swallow(Riparia riparia), "
AB130,"Castleguard Cave","Castleguard Cave",52.09,-117.23,1600,3414,131.95,"2022-12-02 00:00:00",100,0,National,"Global: A1 - Threatened species (invertebrates); B1 - Individual geographically restricted species (invertebrates). National: ","Site/area management, Site/area protection, Resource & habitat protection, Policies and regulations, Legislation","Temperate or sub-polar grassland(3.69%), Urban(0.01%), Temperate or sub-polar needleleaf forest(18.87%), Water(1.03%), Mixed forest(0.06%), Barren lands(40.59%), Temperate or sub-polar shrubland(0.97%), Wetland(0.12%), ",Alberta,"Castleguard Cave Stygobromid(Stygobromus canadensis), "
AB131,"Richardson Sands","Richardson Sands",58.03,-110.99,260,312,80.02,"2023-08-21 00:00:00",100,0,National,"Global: . National: A1 - Threatened species (vascular plants); B1 - Individual geographically restricted species (vascular plants)","Site/area protection, Policies and regulations, Legislation","Temperate or sub-polar needleleaf forest(1.75%), Sub-polar taiga needleleaf forest(2.42%), Water(3.15%), Temperate or sub-polar shrubland(1.73%), Barren lands(12.03%), Mixed forest(0.29%), Urban(1.1%), Temperate or sub-polar grassland(73.93%), Wetland(3.59%), ",Alberta,"Impoverished Pinweed(Lechea intermedia var. depauperata), "
AB132,"Whitehorse Wildland","Whitehorse Wildland",53.00,-117.44,1593,2695,70.09,"2023-10-05 00:00:00",100,0,National,"Global: . National: A1 - Threatened species (mammals, nonvascular plants); B1 - Individual geographically restricted species (nonvascular plants)","Invasive/problematic species control, Awareness & communications, Species management, Legislation, Resource & habitat protection, Policies and regulations, Site/area protection, Site/area management","Temperate or sub-polar needleleaf forest(41.46%), Barren lands(39.63%), Water(0.2%), Temperate or sub-polar shrubland(6.04%), Wetland(1.27%), Mixed forest(2.5%), Temperate or sub-polar grassland(8.85%), Urban(0.04%), ",Alberta,"Little Brown Myotis(Myotis lucifugus), Northern Myotis(Myotis septentrionalis), Porsild's Bryum(Haplodontium macrocarpum), "
AB133,"Dune Point Sandhills","Dune Point Sandhills",50.93,-110.41,595,649,6.84,"2023-10-05 00:00:00",0,0,National,"Global: . National: A1 - Threatened species (invertebrates, mammals, vascular plants)",,"Temperate or sub-polar grassland(93.55%), Water(0.14%), Barren lands(0.56%), Temperate or sub-polar shrubland(5.74%), ",Alberta,"Spiny Milk-vetch(Astragalus kentrophyta), Gold-edged Gem Moth(Schinia avemensis), Dusky Dune Moth(Copablepharon longipenne), Ord's Kangaroo Rat(Dipodomys ordii), "
AB134,"Banff Thermal Springs","Banff Thermal Springs",51.16,-115.58,1401,1704,1.78,"2023-12-14 00:00:00",100,0,National,"Global: A1 - Threatened species (invertebrates); B1 - Individual geographically restricted species (invertebrates). National: ","Formal education, Site/area protection, Awareness & communications, Invasive/problematic species control, Species re-introduction","Water(0.46%), Temperate or sub-polar grassland(0.87%), Barren lands(1.05%), Temperate or sub-polar needleleaf forest(94.17%), Urban(3.33%), ",Alberta,"Banff Springs Snail(Physella johnsoni), "
AB135,Writing-on-Stone,Writing-on-Stone,49.07,-111.62,901,1093,95.08,"2024-06-26 00:00:00",26,0,National,"Global: . National: A1 - Threatened species (fishes, invertebrates, vascular plants); B1 - Individual geographically restricted species (fishes, invertebrates)","Formal education, Species management, Site/area protection, Awareness & communications, Species recovery","Water(2.57%), Temperate or sub-polar grassland(89.52%), Temperate or sub-polar shrubland(1.97%), Cropland(0.76%), Wetland(0.01%), Urban(0.81%), Temperate or sub-polar broadleaf deciduous forest(0.06%), Barren lands(4.28%), Temperate or sub-polar needleleaf forest(0.02%), ",Alberta,"Western Silvery Minnow(Hybognathus argyritis), Rocky Mountain Sculpin(Cottus sp. cf. bairdii pop. 12), Spiny Milk-vetch(Astragalus kentrophyta), Weidemeyer's Admiral(Limenitis weidemeyerii), "
BC002,"Tofino Mudflats","Tofino Mudflats",49.15,-125.87,0,510,99.76,"2022-08-18 00:00:00",48,0,Global,"Global: A1 - Threatened species (birds); D1 - Demographic aggregations (birds). National: A1 - Threatened species (birds); D1 - Demographic aggregations (birds)","Legislation, Site/area management, Site/area protection, Awareness & communications, Invasive/problematic species control","Temperate or sub-polar needleleaf forest(52.1%), Urban(2.12%), Barren lands(0.18%), Water(42.98%), Temperate or sub-polar shrubland(2.24%), Temperate or sub-polar grassland(0.38%), ","British Columbia","Western Sandpiper(Calidris mauri), Marbled Murrelet(Brachyramphus marmoratus), Least Sandpiper(Calidris minutilla), Whimbrel(Numenius phaeopus), "
BC017,"Fraser River Estuary","Fraser River Estuary",49.15,-123.12,0,5,686.869,"2022-08-18 00:00:00",44,0,Global,"Global: Aggregations of birds (D1). National: Threatened birds (A1); Aggregations of birds (D1)",,"Urban(9.68%), Cropland(20.29%), Water(54.58%), Temperate or sub-polar grassland(3.27%), Temperate or sub-polar needleleaf forest(3.99%), Temperate or sub-polar shrubland(5.7%), Barren lands(1.08%), ","British Columbia","Brant(Branta bernicla), Trumpeter Swan(Cygnus buccinator), Glaucous-winged Gull(Larus glaucescens), Surf Scoter(Melanitta perspicillata), Dunlin(Calidris alpina), Western Sandpiper(Calidris mauri), Black Swift(Cypseloides niger), White-winged Scoter(Melanitta deglandi), Western Grebe(Aechmophorus occidentalis), Barn Owl(Tyto alba pop. 1), American Wigeon(Mareca americana), "
BC179,"Creston Valley","Creston Valley",49.14,-116.59,528,873,186.43,"2024-02-15 00:00:00",37,0,National,"Global: . National: A1 - Threatened species (amphibians and reptiles); B1 - Individual geographically restricted species (amphibians and reptiles); D1 - Demographic aggregations (fishes)","Invasive/problematic species control, Legislation, Awareness & communications, Site/area management, Site/area protection, Policies and regulations, Resource & habitat protection","Temperate or sub-polar needleleaf forest(5.23%), Barren lands(0.36%), Cropland(43.57%), Urban(2.81%), Wetland(2.69%), Water(24.7%), Temperate or sub-polar grassland(5.99%), Temperate or sub-polar shrubland(14.65%), ","British Columbia","Northern Leopard Frog(Lithobates pipiens pop. 1), White Sturgeon(Acipenser transmontanus pop. 1), "
BC258,"Skookumchuck Prairie","Skookumchuck Prairie",49.85,-115.74,769,932,125.09,"2023-09-25 00:00:00",4,0,National,"Global: . National: A1 - Threatened species (birds)","Habitat & natural process restoration, Site/area protection, Site/area management","Barren lands(2.27%), Cropland(1.26%), Temperate or sub-polar needleleaf forest(24.87%), Urban(8.05%), Temperate or sub-polar shrubland(5.38%), Water(5.4%), Temperate or sub-polar grassland(52.76%), ","British Columbia","Lewis's Woodpecker(Melanerpes lewis), "
BC272,K'ómoks,K’ómoks,49.71,-125.02,0,301,565.01,"2024-06-26 00:00:00",9,0,National,"Global: A1 - Threatened species (birds, vascular plants); D1 - Demographic aggregations (birds). National: A1 - Threatened species (birds, fishes, invertebrates, vascular plants); B1 - Individual geographically restricted species (fishes, invertebrates, vascular plants); D1 - Demographic aggregations (birds, fishes)","Awareness & communications, Species re-introduction, Site/area management, Species recovery, Legislation, Resource & habitat protection, Site/area protection, Policies and regulations","Temperate or sub-polar grassland(3.52%), Water(41.56%), Barren lands(0.41%), Urban(9.9%), Temperate or sub-polar shrubland(12.93%), Wetland(0%), Cropland(8.19%), Temperate or sub-polar needleleaf forest(23.19%), Mixed forest(0.29%), ","British Columbia","Coast Microseris(Microseris bigelovii), Trumpeter Swan(Cygnus buccinator), Western Brook Lamprey(Lampetra richardsoni pop. 1), Iceland Gull(Larus glaucoides), Surf Scoter(Melanitta perspicillata), Marbled Murrelet(Brachyramphus marmoratus), Taylor's Checkerspot(Euphydryas editha taylori), Black Oystercatcher(Haematopus bachmani), Pacific Herring(Clupea pallasii), Macoun's Meadowfoam(Limnanthes macounii), Short-billed Gull(Larus brachyrhynchus), Common Wood-Nymph(Cercyonis pegala incana), White-winged Scoter(Melanitta deglandi), Glaucous-winged Gull(Larus glaucescens), Sand-verbena Moth(Copablepharon fuscum), "
BC283,"Trial Islands","Trial Islands",48.40,-123.31,1,22,0.19,"2019-12-11 00:00:00",100,0,Global,"Global: Threatened vascular plants (A1); Geographically restricted vascular plants (individual species) (B1). National: ","Site/area protection, Invasive/problematic species control, Site/area management, Resource & habitat protection","Barren lands(26.13%), Temperate or sub-polar grassland(41.77%), Water(31.9%), ","British Columbia","Victoria's Owl-clover(Castilleja victoriae), Macoun's Meadowfoam(Limnanthes macounii), "
BC284,"Fort Rodd Hill","Fort Rodd Hill",48.43,-123.45,3,48,0.28,"2022-09-21 00:00:00",5,0,National,"Global: Threatened vascular plants (A1). National: Threatened vascular plants (A1); Geographically restricted vascular plants (individual species) (B1)","Site/area protection, Species recovery, Species re-introduction, Invasive/problematic species control","Temperate or sub-polar shrubland(4.1%), Barren lands(5.35%), Water(4.82%), Urban(16.5%), Temperate or sub-polar grassland(24.32%), Temperate or sub-polar needleleaf forest(44.9%), ","British Columbia","Macoun's Meadowfoam(Limnanthes macounii), Deltoid Balsamroot(Balsamorhiza deltoidea), "
BC285,"Little Quarry Lake","Little Quarry Lake",49.66,-124.11,50,73,0.31,"2022-09-21 00:00:00",16,0,National,"Global: . National: A1 - Threatened species (fishes); B1 - Individual geographically restricted species (fishes)","Site/area management","Water(74.54%), Temperate or sub-polar needleleaf forest(23.89%), ","British Columbia","Little Quarry Lake Benthic Threespine Stickleback(Gasterosteus aculeatus pop. 2), Little Quarry Lake Limnetic Threespine Stickleback(Gasterosteus aculeatus pop. 3), "
BC286,"McKenzie - Pemberton","McKenzie - Pemberton",50.32,-122.76,206,408,2.94,"2022-09-21 00:00:00",2,0,National,"Global: . National: Threatened amphibians and reptiles (A1); Geographically restricted amphibians and reptiles (individual species) (B1)","Species recovery","Mixed forest(0.9%), Urban(11.07%), Barren lands(1.46%), Temperate or sub-polar shrubland(17.76%), Temperate or sub-polar grassland(11.86%), Temperate or sub-polar needleleaf forest(56.76%), ","British Columbia","Sharp-tailed Snake(Contia tenuis pop. 2), "
BC287,"Yaq̓it ʔa·knuqⱡi’it - Tobacco Plains","Yaq̓it ʔa·knuqⱡi’it - Tobacco Plains",49.05,-115.10,778,966,63.16,"2022-09-21 00:00:00",1,0,National,"Global: A1 - Threatened species (vascular plants). National: A1 - Threatened species (vascular plants); B1 - Individual geographically restricted species (vascular plants)","Habitat & natural process restoration, Invasive/problematic species control, Site/area management","Cropland(3.09%), Temperate or sub-polar shrubland(1.53%), Water(1.21%), Temperate or sub-polar needleleaf forest(47.22%), Temperate or sub-polar grassland(44.8%), Urban(2.02%), Barren lands(0.13%), ","British Columbia","Spalding's Campion(Silene spaldingii), "
BC288,"Yat’aayi Héen","Yat’aayi Héen",59.41,-133.58,670,706,0.54,"2023-03-27 00:00:00",0,0,National,"Global: . National: A1 - Threatened species (fishes); B1 - Individual geographically restricted species (fishes)","Site/area management, Invasive/problematic species control","Water(1.47%), Barren lands(10.32%), Temperate or sub-polar shrubland(7.7%), Urban(5.34%), Temperate or sub-polar needleleaf forest(66.84%), Temperate or sub-polar grassland(2.35%), Mixed forest(5.75%), ","British Columbia","Lake Chub(Couesius plumbeus pop. 3), "
BC289,"Misty Lake","Misty Lake",50.61,-127.26,61,116,0.93,"2023-10-27 00:00:00",53,0,National,"Global: A1 - Threatened species (fishes); B1 - Individual geographically restricted species (fishes). National: ","Site/area protection, Site/area management","Temperate or sub-polar needleleaf forest(53.41%), Urban(1.18%), Water(41.62%), Temperate or sub-polar shrubland(3.52%), ","British Columbia","Misty Lake Lentic Threespine Stickleback(Gasterosteus sp. 18), Misty Lake Lotic Threespine Stickleback(Gasterosteus sp. 19), "
BC290,"Lax Kul Nii Luutiksm - Bonilla","Lax Kul Nii Luutiksm - Bonilla",53.46,-130.62,0,219,317.6,"2023-10-27 00:00:00",5,0,National,"Global: . National: D1 - Demographic aggregations (mammals)","Site/area protection, Site/area management","Temperate or sub-polar needleleaf forest(1.82%), Water(97.69%), Barren lands(0.2%), Wetland(0.12%), Temperate or sub-polar grassland(0.13%), Temperate or sub-polar shrubland(0.03%), ","British Columbia","Steller Sea Lion(Eumetopias jubatus), "
BC291,"North Danger Rocks","North Danger Rocks",53.25,-130.34,0,0,338.86,"2023-10-27 00:00:00",16,0,National,"Global: . National: D1 - Demographic aggregations (mammals)","Site/area protection","Water(100%), ","British Columbia","Steller Sea Lion(Eumetopias jubatus), "
BC292,"Virgin and Pearl Rocks","Virgin and Pearl Rocks",51.32,-128.12,0,43,676,"2023-11-22 00:00:00",0,0,National,"Global: . National: D1 - Demographic aggregations (mammals)",,"Temperate or sub-polar shrubland(0%), Barren lands(0.01%), Temperate or sub-polar needleleaf forest(0.08%), Water(99.91%), ","British Columbia","Steller Sea Lion(Eumetopias jubatus), "
BC293,"Warrior Rocks","Warrior Rocks",54.06,-130.85,0,44,311.81,"2023-12-14 00:00:00",3,0,National,"Global: . National: D1 - Demographic aggregations (mammals)","Resource & habitat protection, Site/area protection, Site/area management, Species management","Barren lands(0.02%), Temperate or sub-polar shrubland(0.01%), Temperate or sub-polar grassland(0.01%), Water(99.19%), Wetland(0.01%), Temperate or sub-polar needleleaf forest(0.76%), ","British Columbia","Steller Sea Lion(Eumetopias jubatus), "
BC294,"Durrance Lake - Cole Hill","Durrance Lake - Cole Hill",48.55,-123.47,50,261,1.99,"2024-01-22 00:00:00",30,0,National,"Global: . National: A1 - Threatened species (amphibians and reptiles, invertebrates)","Site/area management, Site/area protection, Awareness & communications, Invasive/problematic species control","Temperate or sub-polar needleleaf forest(86.79%), Water(3.92%), Temperate or sub-polar grassland(0.38%), Mixed forest(4.76%), Urban(1.4%), Temperate or sub-polar shrubland(2.67%), ","British Columbia","Sharp-tailed Snake(Contia tenuis pop. 1), Blue-grey Taildropper(Prophysaon coeruleum), "
BC295,"Gonzales Point","Gonzales Point",48.41,-123.30,0,15,0.02,"2024-01-22 00:00:00",40,0,National,"Global: A1 - Threatened species (vascular plants); B1 - Individual geographically restricted species (vascular plants). National: A1 - Threatened species (vascular plants); B1 - Individual geographically restricted species (vascular plants)",,"Water(47.31%), ","British Columbia","Victoria's Owl-clover(Castilleja victoriae), Bearded Owl's-clover(Triphysaria versicolor), Macoun's Meadowfoam(Limnanthes macounii), "
BC296,"Harling Point","Harling Point",48.41,-123.32,3,13,0.02,"2024-01-22 00:00:00",36,0,National,"Global: A1 - Threatened species (vascular plants); B1 - Individual geographically restricted species (vascular plants). National: A1 - Threatened species (vascular plants); B1 - Individual geographically restricted species (vascular plants)","Site/area management","Urban(93.62%), ","British Columbia","Macoun's Meadowfoam(Limnanthes macounii), Victoria's Owl-clover(Castilleja victoriae), Bear's-foot Sanicle(Sanicula arctopoides), Coast Microseris(Microseris bigelovii), Bearded Owl's-clover(Triphysaria versicolor), "
BC297,Klinse-Za,Klinse-Za,55.74,-122.93,633,2406,4483.35,"2024-01-22 00:00:00",18,0,National,"Global: . National: A1 - Threatened species (mammals); B1 - Individual geographically restricted species (mammals)","Site/area protection, Awareness & communications, Invasive/problematic species control, Resource & habitat protection, Policies and regulations, Site/area management, Species recovery, Species management","Urban(0.06%), Temperate or sub-polar needleleaf forest(66.15%), Wetland(0.16%), Temperate or sub-polar shrubland(12.51%), Barren lands(5.3%), Mixed forest(8.06%), Sub-polar taiga needleleaf forest(0%), Temperate or sub-polar grassland(7.09%), Temperate or sub-polar broadleaf deciduous forest(0%), Water(0.64%), ","British Columbia","Caribou(Rangifer tarandus pop. 18), "
BC298,"Kohweechela - Mary Tod Island","Kohweechela - Mary Tod Island",48.43,-123.30,0,8,0.03,"2024-01-22 00:00:00",100,0,National,"Global: . National: A1 - Threatened species (vascular plants); B1 - Individual geographically restricted species (vascular plants)","Site/area protection, Species management, Invasive/problematic species control","Water(44.85%), Temperate or sub-polar grassland(26.45%), Barren lands(22.94%), ","British Columbia","Bearded Owl's-clover(Triphysaria versicolor), Erect Pygmyweed(Crassula connata), Bear's-foot Sanicle(Sanicula arctopoides), Tall Woolly-heads(Psilocarphus elatior), "
BC299,"Trafalgar Park","Trafalgar Park",48.41,-123.32,0,17,0.02,"2024-01-22 00:00:00",30,0,National,"Global: Threatened vascular plants (A1). National: Threatened vascular plants (A1); Geographically restricted vascular plants (individual species) (B1)",,"Urban(94.16%), ","British Columbia","Coast Microseris(Microseris bigelovii), Macoun's Meadowfoam(Limnanthes macounii), "
BC300,"Uplands Park - Cattle Point","Uplands Park - Cattle Point",48.44,-123.29,0,26,0.39,"2024-01-22 00:00:00",8,0,National,"Global: A1 - Threatened species (vascular plants); B1 - Individual geographically restricted species (vascular plants). National: A1 - Threatened species (vascular plants); B1 - Individual geographically restricted species (vascular plants)","Invasive/problematic species control, Habitat & natural process restoration, Species management, Species re-introduction, Species recovery, Site/area management, Awareness & communications, Site/area protection","Temperate or sub-polar needleleaf forest(10.89%), Temperate or sub-polar grassland(18.09%), Water(2.7%), Mixed forest(5.18%), Urban(36.82%), Temperate or sub-polar shrubland(26.15%), ","British Columbia","Coast Microseris(Microseris bigelovii), Tall Woolly-heads(Psilocarphus elatior), Water-plantain Buttercup(Ranunculus alismifolius), Kellogg's Rush(Juncus kelloggii), Macoun's Meadowfoam(Limnanthes macounii), Victoria's Owl-clover(Castilleja victoriae), Bearded Owl's-clover(Triphysaria versicolor), Yellow Montane Violet(Viola praemorsa var. praemorsa), Purple Sanicle(Sanicula bipinnatifida), Muhlenberg's Centaury(Zeltnera muehlenbergii), "
BC301,"Christmas Hill","Christmas Hill",48.47,-123.38,56,103,0.14,"2024-01-23 00:00:00",0,0,National,"Global: . National: A1 - Threatened species (vascular plants); B1 - Individual geographically restricted species (vascular plants)","Habitat & natural process restoration, Awareness & communications, Site/area management, Invasive/problematic species control, Resource & habitat protection, Site/area protection, Species recovery, Species management, Compliance and enforcement","Temperate or sub-polar grassland(5.51%), Temperate or sub-polar needleleaf forest(55.22%), Urban(37.25%), ","British Columbia","Tall Woolly-heads(Psilocarphus elatior), "
BC302,"XwaYeN - Race Rocks","XwaYeN - Race Rocks",48.30,-123.53,0,3,2.27,"2024-01-23 00:00:00",100,0,National,"Global: . National: D1 - Demographic aggregations (mammals)","Site/area protection, Invasive/problematic species control, Resource & habitat protection, Training, Site/area management, Formal education","Water(99.55%), Barren lands(0.43%), ","British Columbia","Northern Elephant Seal(Mirounga angustirostris), "
BC303,"Witty's Beach","Witty's Beach",48.39,-123.51,1,6,0.03,"2024-01-23 00:00:00",93,0,National,"Global: . National: A1 - Threatened species (vascular plants); B1 - Individual geographically restricted species (vascular plants)","Site/area protection, Species re-introduction, Invasive/problematic species control, Site/area management","Barren lands(32.7%), Water(27.02%), Urban(18.65%), ","British Columbia","Contorted-pod Evening-primrose(Camissonia contorta), "
BC304,"Nanaimo Lakes","Nanaimo Lakes",49.07,-124.44,250,1786,467.63,"2024-01-23 00:00:00",3,0,National,"Global: A1 - Threatened species (mammals); B1 - Individual geographically restricted species (mammals). National: ","Site/area protection, Species recovery, Site/area management, Awareness & communications, Legislation, Species management","Temperate or sub-polar needleleaf forest(71.81%), Temperate or sub-polar grassland(6.36%), Temperate or sub-polar shrubland(17.07%), Mixed forest(0.15%), Cropland(0.01%), Urban(1.83%), Barren lands(1.51%), Water(1.26%), ","British Columbia","Vancouver Island Marmot(Marmota vancouverensis), "
BC305,"Elliot Bluff","Elliot Bluff",48.79,-123.21,8,55,0.060000000000000005,"2024-02-15 00:00:00",0,0,National,"Global: . National: A1 - Threatened species (vascular plants); B1 - Individual geographically restricted species (vascular plants)",,"Temperate or sub-polar needleleaf forest(65.54%), Water(19.97%), Barren lands(14.17%), ","British Columbia","Lindley's False Silverpuffs(Uropappus lindleyi), "
BC306,"Mount Warburton-Pike - Mount Fisher","Mount Warburton-Pike - Mount Fisher",48.77,-123.17,17,400,1.09,"2024-02-15 00:00:00",20,0,National,"Global: A1 - Threatened species (vascular plants). National: A1 - Threatened species (vascular plants); B1 - Individual geographically restricted species (vascular plants)","Site/area management, Site/area protection, Invasive/problematic species control, Species recovery","Urban(14.93%), Barren lands(16.14%), Temperate or sub-polar needleleaf forest(29.22%), Temperate or sub-polar grassland(39.52%), ","British Columbia","Winecup Clarkia(Clarkia purpurea), Lindley's False Silverpuffs(Uropappus lindleyi), White Meconella(Meconella oregana), Branched Clover(Trifolium dichotomum), Slender Popcornflower(Plagiobothrys tenellus), Purple Sanicle(Sanicula bipinnatifida), "
BC307,"Liard River Hot Springs","Liard River Hot Springs",59.43,-126.10,462,565,2.07,"2024-03-19 00:00:00",93,0,National,"Global: A1 - Threatened species (invertebrates); B1 - Individual geographically restricted species (invertebrates). National: A1 - Threatened species (fishes); B1 - Individual geographically restricted species (fishes)","Site/area management, Site/area protection, Resource & habitat protection","Temperate or sub-polar needleleaf forest(29.25%), Wetland(8.01%), Urban(0.69%), Temperate or sub-polar broadleaf deciduous forest(26.02%), Mixed forest(20.36%), Water(0.41%), Barren lands(0.51%), Temperate or sub-polar shrubland(14.6%), ","British Columbia","Lake Chub(Couesius plumbeus pop. 2), Hotwater Physa(Physella wrighti), "
BC308,"Paxton Lake","Paxton Lake",49.71,-124.52,96,115,0.27,"2024-04-17 00:00:00",0,0,National,"Global: A1 - Threatened species (fishes); B1 - Individual geographically restricted species (fishes). National: ",,"Temperate or sub-polar shrubland(1.89%), Temperate or sub-polar needleleaf forest(30.85%), Water(66.62%), ","British Columbia","Paxton Lake Limnetic Threespine Stickleback(Gasterosteus sp. 4), Paxton Lake Benthic Threespine Stickleback(Gasterosteus sp. 5), "
BC309,"Pitt Lake","Pitt Lake",49.43,-122.54,0,149,57.86,"2024-05-22 00:00:00",19,0,National,"Global: . National: A1 - Threatened species (fishes); B1 - Individual geographically restricted species (fishes)",,"Temperate or sub-polar grassland(0.14%), Temperate or sub-polar shrubland(0.54%), Temperate or sub-polar needleleaf forest(3.81%), Barren lands(0.09%), Mixed forest(0.31%), Urban(0.05%), Water(95.05%), ","British Columbia","Longfin Smelt(Spirinchus thaleichthys pop. 1), "
BC310,"Cowichan, Mesachie and Bear Lakes","Cowichan, Mesachie and Bear Lakes",48.82,-124.16,161,227,66.65,"2024-05-22 00:00:00",0,0,National,"Global: A1 - Threatened species (fishes); B1 - Individual geographically restricted species (fishes). National: ","Species management, Species recovery, Site/area management","Temperate or sub-polar shrubland(0.83%), Mixed forest(0.04%), Barren lands(0.07%), Urban(1.12%), Temperate or sub-polar needleleaf forest(2.33%), Water(95.41%), Temperate or sub-polar grassland(0.2%), ","British Columbia","Vancouver Lamprey(Entosphenus macrostomus), "
BC311,"Flathead West","Flathead West",49.09,-114.66,1248,2647,251.21,"2024-05-22 00:00:00",10,0,National,"Global: . National: A1 - Threatened species (amphibians and reptiles); B1 - Individual geographically restricted species (amphibians and reptiles)","Resource & habitat protection, Private sector standards & codes, Site/area management, Site/area protection","Water(0.2%), Temperate or sub-polar grassland(21.91%), Urban(0.61%), Barren lands(2.46%), Temperate or sub-polar shrubland(17.14%), Temperate or sub-polar needleleaf forest(57.68%), ","British Columbia","Rocky Mountain Tailed Frog(Ascaphus montanus), "
BC313,"Yahk - Gilnockie","Yahk - Gilnockie",49.13,-115.72,1045,2184,281.09,"2024-06-26 00:00:00",6,0,National,"Global: . National: A1 - Threatened species (amphibians and reptiles); B1 - Individual geographically restricted species (amphibians and reptiles)","Resource & habitat protection, Private sector standards & codes, Site/area protection, Site/area management","Water(0.05%), Urban(0.5%), Temperate or sub-polar grassland(10.54%), Temperate or sub-polar needleleaf forest(76.69%), Barren lands(0.25%), Temperate or sub-polar shrubland(11.98%), ","British Columbia","Rocky Mountain Tailed Frog(Ascaphus montanus), "
BC314,"Elmer Creek","Elmer Creek",49.02,-116.14,826,2050,14.64,"2024-06-26 00:00:00",0,0,National,"Global: . National: A1 - Threatened species (amphibians and reptiles)","Private sector standards & codes, Resource & habitat protection, Site/area management, Site/area protection","Temperate or sub-polar shrubland(9.64%), Urban(0.46%), Temperate or sub-polar grassland(11.78%), Barren lands(0.26%), Temperate or sub-polar needleleaf forest(77.84%), ","British Columbia","Rocky Mountain Tailed Frog(Ascaphus montanus), "
BC315,"Mount Baldy","Mount Baldy",49.18,-119.22,1769,1914,0.22,"2024-06-26 00:00:00",0,0,National,"Global: . National: A1 - Threatened species (vascular plants); B1 - Individual geographically restricted species (vascular plants)","Species recovery","Temperate or sub-polar grassland(17.41%), Temperate or sub-polar needleleaf forest(72.77%), Temperate or sub-polar shrubland(8.09%), ","British Columbia","Lemmon's Holly Fern(Polystichum lemmonii), "
BC316,"Harrison Lake","Harrison Lake",49.52,-121.87,6,322,254.99,"2024-07-24 00:00:00",1,0,National,"Global: . National: A1 - Threatened species (fishes); B1 - Individual geographically restricted species (fishes)","Site/area management","Mixed forest(0.36%), Water(89.14%), Temperate or sub-polar shrubland(0.95%), Urban(0.19%), Temperate or sub-polar needleleaf forest(8.74%), Cropland(0.04%), Barren lands(0.06%), Temperate or sub-polar grassland(0.52%), ","British Columbia","Longfin Smelt(Spirinchus thaleichthys pop. 1), "
BC317,"Mount Tzuhalem","Mount Tzuhalem",48.79,-123.64,72,301,0.33,"2024-09-25 00:00:00",49,0,National,"Global: . National: A1 - Threatened species (vascular plants); B1 - Individual geographically restricted species (vascular plants)","Site/area management, Resource & habitat protection, Site/area protection","Temperate or sub-polar grassland(9.23%), Urban(1.7%), Temperate or sub-polar needleleaf forest(86.32%), ","British Columbia","Fern-leaved Desert-parsley(Lomatium dissectum), Winecup Clarkia(Clarkia purpurea), Yellow Montane Violet(Viola praemorsa var. praemorsa), Deltoid Balsamroot(Balsamorhiza deltoidea), "
BC318,"Trout Creek Ecological Reserve","Trout Creek Ecological Reserve",49.56,-119.70,530,905,1.64,"2024-06-26 00:00:00",50,0,National,"Global: . National: A1 - Threatened species (vascular plants); B1 - Individual geographically restricted species (vascular plants)","Site/area protection, Legislation","Temperate or sub-polar needleleaf forest(16.46%), Cropland(0.56%), Temperate or sub-polar shrubland(67.68%), Barren lands(8.92%), Temperate or sub-polar grassland(5.52%), Urban(0.77%), ","British Columbia","Woody-pod Milk-vetch(Astragalus sclerocarpus), "
MB015,"Whitewater Lake","Whitewater Lake",49.25,-100.32,488,535,301.36,"2022-08-18 00:00:00",10,0,Global,"Global: D1 - Demographic aggregations (birds). National: A1 - Threatened species (birds); D1 - Demographic aggregations (birds)","Site/area management, Site/area protection, Legislation","Temperate or sub-polar needleleaf forest(0.17%), Barren lands(0.01%), Wetland(3.3%), Temperate or sub-polar broadleaf deciduous forest(0.38%), Mixed forest(0.03%), Temperate or sub-polar grassland(3.44%), Temperate or sub-polar shrubland(0.11%), Urban(1.94%), Cropland(50.31%), Water(40.3%), ",Manitoba,"Hudsonian Godwit(Limosa haemastica), Sandhill Crane(Antigone canadensis), Snow Goose(Anser caerulescens), Tundra Swan(Cygnus columbianus), Franklin's Gull(Leucophaeus pipixcan), Bank Swallow(Riparia riparia), Long-billed Dowitcher(Limnodromus scolopaceus), Western Grebe(Aechmophorus occidentalis), Short-billed Dowitcher(Limnodromus griseus), Lesser Yellowlegs(Tringa flavipes), "
MB114,"Lake Francis Veterans","Lake Francis Veterans",50.34,-97.91,252,254,0.03,"2022-12-06 00:00:00",0,0,National,"Global: . National: A1 - Threatened species (vascular plants)",,"Wetland(57.46%), Temperate or sub-polar grassland(37.87%), ",Manitoba,"Rough Agalinis(Agalinis aspera), "
MB115,"Pine Ridge Hillside","Pine Ridge Hillside",49.99,-96.89,247,268,2.05,"2022-12-06 00:00:00",12,0,National,"Global: . National: Threatened vascular plants (A1)","Site/area protection","Temperate or sub-polar shrubland(11.74%), Cropland(16.45%), Temperate or sub-polar grassland(32.89%), Wetland(12.94%), Barren lands(1.26%), Urban(17.57%), Temperate or sub-polar broadleaf deciduous forest(7.09%), ",Manitoba,"Western Silvery Aster(Symphyotrichum sericeum), Rough Agalinis(Agalinis aspera), "
MB116,"Rounthwaite Five Mile Creek","Rounthwaite Five Mile Creek",49.64,-99.79,407,411,0.16,"2022-12-06 00:00:00",0,0,National,"Global: . National: A1 - Threatened species (vascular plants, sensitive species)",,"Wetland(26.33%), Urban(17.25%), Cropland(20.67%), Temperate or sub-polar broadleaf deciduous forest(3.2%), Temperate or sub-polar grassland(12.01%), Water(19.86%), ",Manitoba,"Rough Agalinis(Agalinis aspera), "
MB117,"Spring Creek","Spring Creek",49.72,-99.84,365,489,0.17,"2023-03-06 00:00:00",8,1,National,"Global: . National: Threatened sensitive species (A1); Geographically restricted sensitive species (individual species) (B1)","Site/area protection, Invasive/problematic species control","Urban(2.45%), Temperate or sub-polar shrubland(0.41%), Temperate or sub-polar broadleaf deciduous forest(29.19%), Temperate or sub-polar needleleaf forest(0.18%), Cropland(53.35%), Mixed forest(0.24%), Water(0.88%), Temperate or sub-polar grassland(7.13%), Wetland(6.18%), ",Manitoba,
MB118,"Minago River","Minago River",54.48,-98.66,207,217,1.96,"2023-06-16 00:00:00",0,0,Global,"Global: Threatened vascular plants (A1); Geographically restricted vascular plants (individual species) (B1). National: ",,"Temperate or sub-polar shrubland(6.02%), Temperate or sub-polar needleleaf forest(5.91%), Water(76.03%), Temperate or sub-polar grassland(4.66%), Wetland(7.05%), ",Manitoba,"Lori's Water-lily(Nymphaea loriana), "
MB119,"Rat River","Rat River",49.49,-97.03,228,242,11.14,"2023-10-30 00:00:00",0,0,National,"Global: . National: Threatened invertebrates & vascular plants (A1); Geographically restricted vascular plants (individual species) (B1)",,"Cropland(15.79%), Wetland(13.41%), Temperate or sub-polar broadleaf deciduous forest(51.38%), Mixed forest(3.67%), Temperate or sub-polar needleleaf forest(0.93%), Temperate or sub-polar grassland(2.32%), Urban(4.16%), Water(1.27%), Temperate or sub-polar shrubland(7.07%), ",Manitoba,"Fascicled Ironweed(Vernonia fasciculata), Mapleleaf Mussel(Quadrula quadrula pop. 1), "
MB120,"Whitemouth-Birch Rivers","Whitemouth-Birch Rivers",49.74,-95.85,256,313,15.11,"2023-10-30 00:00:00",0,0,National,"Global: . National: A1 - Threatened species (fishes); B1 - Individual geographically restricted species (fishes)","Legislation, Resource & habitat protection, Species recovery","Temperate or sub-polar shrubland(5.24%), Wetland(11.5%), Temperate or sub-polar grassland(3.16%), Temperate or sub-polar needleleaf forest(9.08%), Water(28.3%), Urban(1.98%), Temperate or sub-polar broadleaf deciduous forest(13.06%), Cropland(19.65%), Mixed forest(8.02%), ",Manitoba,"Northern Brook Lamprey(Ichthyomyzon fossor pop. 2), Carmine Shiner(Notropis percobromus), "
MB121,"Bird River","Bird River",50.41,-95.67,257,275,0.4900000000000001,"2023-12-14 00:00:00",0,0,National,"Global: . National: A1 - Threatened species (fishes)",,"Urban(2.63%), Mixed forest(2.04%), Temperate or sub-polar shrubland(3.66%), Water(61.37%), Temperate or sub-polar needleleaf forest(8.9%), Wetland(19.62%), Temperate or sub-polar grassland(1.16%), ",Manitoba,"Carmine Shiner(Notropis percobromus), "
MB122,"Old Pinawa Dam","Old Pinawa Dam",50.22,-95.92,250,259,0.060000000000000005,"2023-12-14 00:00:00",0,0,National,"Global: . National: A1 - Threatened species (fishes)","Site/area protection","Cropland(10.39%), Water(78.36%), ",Manitoba,"Carmine Shiner(Notropis percobromus), "
MB123,"Marble Ridge Alvar","Marble Ridge Alvar",51.16,-97.62,238,264,68.49,"2024-02-14 00:00:00",0,0,National,"Global: B4 - Geographically restricted ecosystem types (grasslands and shrublands). National: ",,"Barren lands(0.2%), Temperate or sub-polar shrubland(0.57%), Mixed forest(1.57%), Water(2.48%), Wetland(46.95%), Temperate or sub-polar grassland(27.55%), Temperate or sub-polar needleleaf forest(5.14%), Cropland(1.91%), Temperate or sub-polar broadleaf deciduous forest(12.49%), Urban(1.13%), ",Manitoba,
MB124,Narcisse,Narcisse,50.75,-97.60,252,286,246.47,"2024-02-14 00:00:00",32,0,National,"Global: D1 - Demographic aggregations (amphibians and reptiles). National: ","Formal education, Site/area protection, Site/area management, Awareness & communications","Temperate or sub-polar shrubland(1.88%), Cropland(0.14%), Barren lands(0.01%), Urban(0.68%), Temperate or sub-polar grassland(11.51%), Mixed forest(10%), Wetland(32.92%), Temperate or sub-polar broadleaf deciduous forest(23.97%), Temperate or sub-polar needleleaf forest(1.74%), Water(17.15%), ",Manitoba,"Common Gartersnake(Thamnophis sirtalis), "
MB125,"Portage Sandhills","Portage Sandhills",49.80,-98.27,281,302,57.43,"2024-09-25 00:00:00",28,0,National,"Global: . National: A1 - Threatened species (vascular plants)","Site/area protection","Temperate or sub-polar needleleaf forest(0.02%), Temperate or sub-polar grassland(13.66%), Temperate or sub-polar broadleaf deciduous forest(65.5%), Mixed forest(0.45%), Urban(1.6%), Water(0.5%), Wetland(11.51%), Temperate or sub-polar shrubland(2.43%), Cropland(4.32%), ",Manitoba,"Hairy Prairie-clover(Dalea villosa), "
MB128,"Wagon Creek Road","Wagon Creek Road",50.48,-97.89,258,264,5.99,"2024-09-25 00:00:00",0,0,National,"Global: . National: A1 - Threatened species (vascular plants); B1 - Individual geographically restricted species (vascular plants). GLOBAL: A1 - Threatened species (sensitive species)","Site/area management","Temperate or sub-polar broadleaf deciduous forest(14.06%), Temperate or sub-polar grassland(32.71%), Wetland(48.5%), Cropland(0.33%), Mixed forest(0.3%), Urban(3.27%), Water(0.2%), Temperate or sub-polar shrubland(0.61%), ",Manitoba,"Rough Agalinis(Agalinis aspera), "
NB003,"Kouchibouguac and Richibucto Coast","Côte de Kouchibouguac et de Richibucto",46.83,-64.96,0,42,298.38,"2023-10-05 00:00:00",98,0,National,"Global: A1 - Threatened species (vascular plants). National: A1 - Threatened species (birds, vascular plants); B1 - Individual geographically restricted species (vascular plants); D1 - Demographic aggregations (birds)","Site/area protection, Legislation, Species recovery, Site/area management","Wetland(8.42%), Mixed forest(17.32%), Temperate or sub-polar broadleaf deciduous forest(3.48%), Temperate or sub-polar shrubland(0.11%), Temperate or sub-polar needleleaf forest(33.6%), Water(33.2%), Cropland(0.84%), Urban(0.74%), Temperate or sub-polar grassland(2.06%), Barren lands(0.23%), ","New Brunswick","Piping Plover(Charadrius melodus melodus), Roland's Sea-blite(Suaeda rolandii), Gulf of St. Lawrence Aster(Symphyotrichum laurentianum), Gulf of St. Lawrence Pinweed(Lechea maritima var. subcylindrica), Common Tern(Sterna hirundo), "
NB011,"Grand Manan Archipelago","Archipel de Grand Manan",44.60,-66.81,0,126,1000.76,"2022-08-18 00:00:00",1,0,Global,"Global: A1 - Threatened species (birds); D1 - Demographic aggregations (birds). National: A1 - Threatened species (birds); D1 - Demographic aggregations (birds)","Site/area protection, Awareness & communications, Legislation","Temperate or sub-polar grassland(0.16%), Barren lands(0.01%), Cropland(0.25%), Wetland(0.09%), Mixed forest(1.5%), Temperate or sub-polar needleleaf forest(3.98%), Urban(0.55%), Water(92.86%), Temperate or sub-polar shrubland(0.01%), Temperate or sub-polar broadleaf deciduous forest(0.59%), ","New Brunswick","Razorbill(Alca torda), Leach's Storm-Petrel(Hydrobates leucorhous), Common Eider(Somateria mollissima), Purple Sandpiper(Calidris maritima), Leach's Storm-Petrel(Hydrobates leucorhous pop. 1), "
NB019,"Machias Seal Island","Île Machias Seal",44.50,-67.10,0,7,81.7,"2023-10-05 00:00:00",13,0,National,"Global: . National: D1 - Demographic aggregations (birds)","Invasive/problematic species control, Site/area management, Site/area protection","Water(100%), ","New Brunswick","Razorbill(Alca torda), Atlantic Puffin(Fratercula arctica), "
NB021,"Miscou Island","Plages et lagunes de l’île Miscou",47.95,-64.53,0,16,134.47,"2023-10-05 00:00:00",27,0,National,"Global: A1 - Threatened species (vascular plants). National: A1 - Threatened species (birds); D1 - Demographic aggregations (birds)","Legislation, Awareness & communications, Site/area protection, Policies and regulations, Resource & habitat protection","Temperate or sub-polar shrubland(1.17%), Barren lands(0.2%), Urban(2.07%), Temperate or sub-polar grassland(6.31%), Wetland(10.88%), Temperate or sub-polar needleleaf forest(11.15%), Sub-polar taiga needleleaf forest(0.01%), Cropland(0.01%), Mixed forest(11.95%), Water(55%), Temperate or sub-polar broadleaf deciduous forest(1.25%), ","New Brunswick","Northern Gannet(Morus bassanus), Gulf of St. Lawrence Aster(Symphyotrichum laurentianum), Piping Plover(Charadrius melodus melodus), "
NB037,"Quoddy Region","Région de Quoddy",45.00,-66.90,0,85,133.09,"2022-08-18 00:00:00",0,0,Global,"Global: A1 - Threatened species (birds); D1 - Demographic aggregations (birds). National: D1 - Demographic aggregations (birds)",Legislation,"Urban(2.81%), Barren lands(0.02%), Temperate or sub-polar needleleaf forest(15.75%), Water(72.55%), Mixed forest(4.47%), Wetland(1.46%), Temperate or sub-polar shrubland(0.04%), Temperate or sub-polar grassland(0.62%), Temperate or sub-polar broadleaf deciduous forest(2.28%), ","New Brunswick","Black-legged Kittiwake(Rissa tridactyla), Great Black-backed Gull(Larus marinus), Black-headed Gull(Chroicocephalus ridibundus), Bonaparte's Gull(Chroicocephalus philadelphia), Little Gull(Hydrocoloeus minutus), Razorbill(Alca torda), "
NB042,Pointe-Sapin,Pointe-Sapin,47.01,-64.82,0,3,0.35000000000000003,"2024-06-26 00:00:00",25,0,National,"Global: A1 - Threatened species (vascular plants). National: ","Site/area protection, Policies and regulations, Species management, Legislation","Wetland(6.8%), Water(37.41%), Temperate or sub-polar needleleaf forest(18.98%), Temperate or sub-polar grassland(29.54%), Mixed forest(5.86%), ","New Brunswick","Roland's Sea-blite(Suaeda rolandii), "
NB053,"Fox Island","Île Fox",47.10,-65.00,0,9,7,"2023-02-06 00:00:00",100,0,National,"Global: . National: Threatened vascular plants (A1)",Legislation,"Temperate or sub-polar broadleaf deciduous forest(0.2%), Mixed forest(3.52%), Water(60.51%), Temperate or sub-polar grassland(17.98%), Wetland(7.32%), Temperate or sub-polar needleleaf forest(8.1%), Barren lands(1.76%), Temperate or sub-polar shrubland(0.6%), ","New Brunswick","Gulf of St. Lawrence Pinweed(Lechea maritima var. subcylindrica), "
NB054,"Dipper Harbour Creek","Dipper Harbour Creek",45.11,-66.45,8,40,1.43,"2023-06-16 00:00:00",0,0,National,"Global: . National: Threatened vascular plants (A1)","Policies and regulations, Species management, Resource & habitat protection, Site/area management","Temperate or sub-polar needleleaf forest(84.73%), Temperate or sub-polar broadleaf deciduous forest(2.08%), Mixed forest(12.85%), ","New Brunswick","Van Brunt's Jacob's-ladder(Polemonium vanbruntiae), "
NB055,Bas-Caraquet,Bas-Caraquet,47.80,-64.84,0,5,0.37,"2023-06-20 00:00:00",0,0,National,"Global: A1 - Threatened species (sensitive species). National: ","Legislation, Resource & habitat protection, Awareness & communications, Site/area management, Policies and regulations","Wetland(14.47%), Urban(12.84%), Temperate or sub-polar needleleaf forest(22.63%), Mixed forest(14.84%), Cropland(14.76%), Water(15.97%), Temperate or sub-polar shrubland(2.33%), ","New Brunswick",
NB056,"Peters River","Rivière Peters",47.69,-65.68,0,9,3.09,"2023-06-20 00:00:00",30,0,National,"Global: A1 - Threatened species (sensitive species). National: ","Legislation, Site/area management, Policies and regulations, Awareness & communications, Resource & habitat protection","Temperate or sub-polar broadleaf deciduous forest(1.25%), Mixed forest(11.37%), Temperate or sub-polar needleleaf forest(4.28%), Wetland(0.44%), Temperate or sub-polar grassland(0.82%), Temperate or sub-polar shrubland(0.48%), Cropland(0.23%), Water(61.1%), Urban(19.93%), ","New Brunswick",
NB057,"Rivière du Nord","Rivière du Nord",47.79,-65.07,0,5,3.03,"2023-06-20 00:00:00",0,0,National,"Global: A1 - Threatened species (sensitive species). National: ","Legislation, Awareness & communications, Site/area management, Resource & habitat protection, Policies and regulations","Temperate or sub-polar needleleaf forest(25.04%), Temperate or sub-polar shrubland(2.29%), Temperate or sub-polar broadleaf deciduous forest(3.08%), Temperate or sub-polar grassland(7.59%), Water(19.52%), Wetland(6.68%), Urban(0.39%), Mixed forest(35.29%), ","New Brunswick",
NB058,"Lake Utopia Complex","Complexe du lac Utopia",45.18,-66.79,10,148,26.53,"2023-07-21 00:00:00",8,0,National,"Global: . National: A1 - Threatened species (fishes)","Resource & habitat protection, Policies and regulations, Compliance and enforcement, Awareness & communications, Legislation","Barren lands(0.07%), Mixed forest(14.09%), Urban(0.87%), Water(55.51%), Temperate or sub-polar needleleaf forest(16.02%), Temperate or sub-polar grassland(1.36%), Wetland(0.24%), Temperate or sub-polar broadleaf deciduous forest(11.82%), ","New Brunswick","Rainbow Smelt(Osmerus mordax pop. 3), Rainbow Smelt(Osmerus mordax pop. 2), "
NB059,"Fundy National Park","Parc national Fundy",45.62,-65.04,0,382,205.65,"2023-08-21 00:00:00",100,0,National,"Global: A1 - Threatened species (vascular plants). National: A1 - Threatened species (fungi and lichens); B1 - Individual geographically restricted species (fungi and lichens)","Resource & habitat protection, Site/area protection","Mixed forest(31.33%), Barren lands(0.01%), Urban(1.18%), Cropland(0.13%), Wetland(0.14%), Water(1.05%), Temperate or sub-polar grassland(0.09%), Temperate or sub-polar needleleaf forest(50.74%), Temperate or sub-polar broadleaf deciduous forest(15.32%), ","New Brunswick","Eastern Waterfan(Peltigera hydrothyria), Roland's Sea-blite(Suaeda rolandii), "
NB060,"Upper Wolastoq (Saint John River) Islands","Îles du Wolastoq (fleuve Saint-Jean) supérieur",46.36,-67.56,39,68,10.71,"2023-10-27 00:00:00",1,0,National,"Global: A1 - Threatened species (sensitive species); B1 - Individual geographically restricted species (sensitive species). National: ","Formal education, Site/area management, Policies and regulations, Site/area protection","Temperate or sub-polar grassland(0.78%), Water(71.57%), Cropland(1.72%), Temperate or sub-polar broadleaf deciduous forest(6.22%), Temperate or sub-polar needleleaf forest(4.58%), Wetland(0.25%), Urban(10.87%), Mixed forest(2.81%), Barren lands(1.16%), ","New Brunswick",
NL001,"Cape St. Mary's","Cape St. Mary's",46.81,-54.21,0,150,329.39,"2022-08-18 00:00:00",20,0,Global,"Global: Threatened birds (A1); Aggregations of birds (D1). National: Aggregations of birds (D1)","Legislation, Site/area protection, Policies and regulations, Site/area management","Water(83.21%), Barren lands(0.06%), Wetland(2.96%), Temperate or sub-polar shrubland(9.98%), Temperate or sub-polar needleleaf forest(3.63%), Urban(0.14%), Mixed forest(0.01%), Temperate or sub-polar broadleaf deciduous forest(0%), ","Newfoundland and Labrador","Black-legged Kittiwake(Rissa tridactyla), Northern Gannet(Morus bassanus), "
NL002,"Witless Bay Islands","Witless Bay Islands",47.22,-52.79,0,71,62.71,"2022-08-18 00:00:00",49,0,Global,"Global: A1 - Threatened species (birds); D1 - Demographic aggregations (birds). National: A1 - Threatened species (birds); D1 - Demographic aggregations (birds)","Legislation, Site/area protection","Urban(0.15%), Temperate or sub-polar shrubland(1.33%), Wetland(0.41%), Temperate or sub-polar needleleaf forest(3.35%), Barren lands(0.12%), Water(94.64%), ","Newfoundland and Labrador","Leach's Storm-Petrel(Hydrobates leucorhous pop. 1), Black-legged Kittiwake(Rissa tridactyla), Leach's Storm-Petrel(Hydrobates leucorhous), Razorbill(Alca torda), Common Murre(Uria aalge), Atlantic Puffin(Fratercula arctica), "
NL003,"Baccalieu Island","Baccalieu Island",48.13,-52.80,0,136,45.22,"2024-02-15 00:00:00",51,0,National,"Global: A1 - Threatened species (birds); B1 - Individual geographically restricted species (birds); D1 - Demographic aggregations (birds). National: A1 - Threatened species (birds); B1 - Individual geographically restricted species (birds); D1 - Demographic aggregations (birds)","Site/area protection, Resource & habitat protection, Policies and regulations","Barren lands(0.23%), Temperate or sub-polar needleleaf forest(3.13%), Wetland(0.75%), Water(89.59%), Temperate or sub-polar shrubland(6.25%), Mixed forest(0.04%), ","Newfoundland and Labrador","Northern Gannet(Morus bassanus), Atlantic Puffin(Fratercula arctica), Leach's Storm-Petrel(Hydrobates leucorhous pop. 1), Leach's Storm-Petrel(Hydrobates leucorhous), "
NL013,"Wadham Islands and Marine Area","Wadham Islands and Marine Area",49.56,-53.82,0,17,160.53,"2024-07-24 00:00:00",0,0,National,"Global: A1 - Threatened species (birds). National: D1 - Demographic aggregations (birds)",,"Mixed forest(0.01%), Water(97.49%), Temperate or sub-polar needleleaf forest(0.04%), Temperate or sub-polar shrubland(1.03%), Barren lands(0.16%), Wetland(1.27%), ","Newfoundland and Labrador","Razorbill(Alca torda), Atlantic Puffin(Fratercula arctica), "
NL021,"Cape St. Francis","Cape St. Francis",47.83,-52.78,0,203,70.21,"2024-07-24 00:00:00",0,0,National,"Global: . National: D1 - Demographic aggregations (birds)","Policies and regulations","Temperate or sub-polar needleleaf forest(4.08%), Temperate or sub-polar shrubland(0.28%), Wetland(0.04%), Barren lands(0.44%), Mixed forest(0.01%), Water(94.8%), Urban(0.32%), ","Newfoundland and Labrador","Common Eider(Somateria mollissima), "
NL022,"Quidi Vidi Lake and Area","Quidi Vidi Lake and Area",47.57,-52.69,0,141,5.07,"2024-07-24 00:00:00",0,0,National,"Global: . National: D1 - Demographic aggregations (birds)","Site/area management","Urban(28.76%), Water(35.9%), Mixed forest(0.12%), Barren lands(4.32%), Temperate or sub-polar needleleaf forest(8.16%), Temperate or sub-polar shrubland(22.64%), ","Newfoundland and Labrador","Black-headed Gull(Chroicocephalus ridibundus), Iceland Gull(Larus glaucoides), Great Black-backed Gull(Larus marinus), "
NL024,"Mistaken Point","Mistaken Point",46.61,-53.18,0,91,137.37,"2024-09-25 00:00:00",4,0,National,"Global: . National: D1 - Demographic aggregations (birds)","Site/area protection","Temperate or sub-polar needleleaf forest(0.42%), Barren lands(0.14%), Water(94.55%), Urban(0.19%), Mixed forest(0%), Temperate or sub-polar shrubland(3.81%), Wetland(0.89%), ","Newfoundland and Labrador","Common Eider(Somateria mollissima), "
NL031,"Middle Lawn Island","Middle Lawn Island",46.87,-55.62,0,35,14.29,"2024-07-24 00:00:00",10,0,National,"Global: . National: A1 - Threatened species (birds)","Resource & habitat protection, Site/area protection","Barren lands(0.09%), Temperate or sub-polar needleleaf forest(0.09%), Water(98.93%), Mixed forest(0.04%), Temperate or sub-polar shrubland(0.57%), Wetland(0.27%), ","Newfoundland and Labrador","Leach's Storm-Petrel(Hydrobates leucorhous pop. 1), "
NL032,"Green Island","Green Island",46.88,-56.09,0,1,17.68,"2024-07-24 00:00:00",0,0,National,"Global: A1 - Threatened species (birds). National: A1 - Threatened species (birds)",,"Mixed forest(0.05%), Water(98.62%), Wetland(0.12%), Temperate or sub-polar shrubland(1.17%), ","Newfoundland and Labrador","Leach's Storm-Petrel(Hydrobates leucorhous), Leach's Storm-Petrel(Hydrobates leucorhous pop. 1), "
NL036,"Grand Colombier Island","Grand Colombier Island",46.82,-56.13,0,143,80.69,"2024-07-24 00:00:00",0,0,National,"Global: A1 - Threatened species (birds). National: A1 - Threatened species (birds); D1 - Demographic aggregations (birds)",,"Water(100%), ","Newfoundland and Labrador","Leach's Storm-Petrel(Hydrobates leucorhous), Leach's Storm-Petrel(Hydrobates leucorhous pop. 1), Razorbill(Alca torda), Atlantic Puffin(Fratercula arctica), "
NL038,"Grand Bay West to Cheeseman Provincial Park","Grand Bay West to Cheeseman Provincial Park",47.63,-59.27,0,95,40.33,"2023-09-20 00:00:00",6,0,National,"Global: . National: A1 - Threatened species (birds)","Site/area management, Awareness & communications, Legislation, Policies and regulations, Site/area protection","Temperate or sub-polar needleleaf forest(5.72%), Temperate or sub-polar shrubland(13.64%), Mixed forest(14.18%), Sub-polar or polar barren-lichen-moss(0.02%), Water(50.88%), Wetland(9.3%), Barren lands(2.03%), Temperate or sub-polar broadleaf deciduous forest(0.46%), Urban(3.77%), ","Newfoundland and Labrador","Piping Plover(Charadrius melodus melodus), "
NL047,"Gannet Islands","Gannet Islands",53.95,-56.52,0,58,236.25,"2024-04-17 00:00:00",10,0,National,"Global: A1 - Threatened species (birds). National: D1 - Demographic aggregations (birds)","Site/area protection, Resource & habitat protection, Policies and regulations","Temperate or sub-polar needleleaf forest(0%), Barren lands(0.12%), Sub-polar or polar grassland-lichen-moss(0%), Wetland(0.1%), Temperate or sub-polar grassland(0.04%), Water(99.43%), Sub-polar taiga needleleaf forest(0.02%), Temperate or sub-polar shrubland(0.28%), ","Newfoundland and Labrador","Atlantic Puffin(Fratercula arctica), Harlequin Duck(Histrionicus histrionicus pop. 1), Razorbill(Alca torda), "
NL068,"Point Amour, Strait of Belle Isle","Point Amour, Strait of Belle Isle",51.44,-56.91,0,48,51.44,"2024-07-24 00:00:00",0,0,National,"Global: . National: D1 - Demographic aggregations (birds)",,"Mixed forest(0.06%), Temperate or sub-polar needleleaf forest(0.14%), Urban(0.51%), Sub-polar or polar grassland-lichen-moss(0.17%), Temperate or sub-polar shrubland(0.72%), Water(97.66%), Temperate or sub-polar broadleaf deciduous forest(0.02%), Wetland(0.3%), Barren lands(0.41%), ","Newfoundland and Labrador","Razorbill(Alca torda), "
NL084,"St. John Island","St. John Island",50.83,-57.26,8,62,0.87,"2023-05-09 00:00:00",0,0,National,"Global: . National: Threatened vascular plants (A1)",,"Temperate or sub-polar needleleaf forest(17.79%), Barren lands(61.96%), Wetland(16.61%), Mixed forest(2.07%), Temperate or sub-polar shrubland(1.12%), ","Newfoundland and Labrador","Griscom's Arnica(Arnica griscomii ssp. griscomii), "
NL085,Straitsview,Straitsview,51.59,-55.49,0,30,0.05,"2023-05-09 00:00:00",0,0,National,"Global: . National: A1 - Threatened species (nonvascular plants)",,"Temperate or sub-polar shrubland(40.83%), Water(31.13%), ","Newfoundland and Labrador","Porsild's Bryum(Haplodontium macrocarpum), "
NL086,"White Cape","White Cape",51.51,-55.45,1,89,0.25,"2023-05-09 00:00:00",0,0,National,"Global: . National: A1 - Threatened species (nonvascular plants)",,"Temperate or sub-polar needleleaf forest(8.65%), Temperate or sub-polar shrubland(43.07%), Water(40.84%), Barren lands(2.44%), Sub-polar taiga needleleaf forest(2.21%), ","Newfoundland and Labrador","Porsild's Bryum(Haplodontium macrocarpum), "
NL087,"Cape Onion","Cape Onion",51.61,-55.64,0,80,1.95,"2024-04-17 00:00:00",0,0,National,"Global: . National: A1 - Threatened species (nonvascular plants)",,"Temperate or sub-polar shrubland(29.35%), Temperate or sub-polar needleleaf forest(42.24%), Sub-polar taiga needleleaf forest(0.56%), Barren lands(1.16%), Urban(1.14%), Water(13.27%), Mixed forest(7.77%), Wetland(4.51%), ","Newfoundland and Labrador","Porsild's Bryum(Haplodontium macrocarpum), "
NL088,"Anchor Point","Anchor Point",51.23,-56.76,4,31,2.79,"2024-07-24 00:00:00",0,0,National,"Global: A1 - Threatened species (vascular plants). National: ","Legislation, Awareness & communications, Ex-situ conservation, Policies and regulations","Wetland(14.04%), Temperate or sub-polar shrubland(25.26%), Mixed forest(3.71%), Barren lands(5.38%), Water(9%), Temperate or sub-polar broadleaf deciduous forest(2.21%), Sub-polar or polar barren-lichen-moss(0.58%), Sub-polar taiga needleleaf forest(5.26%), Sub-polar or polar grassland-lichen-moss(2.65%), Temperate or sub-polar needleleaf forest(31.22%), Urban(0.66%), ","Newfoundland and Labrador","Fernald's Braya(Braya fernaldii), "
NL089,"Bateau Barrens","Bateau Barrens",50.40,-57.51,0,23,0.27,"2024-07-24 00:00:00",0,1,National,"Global: A1 - Threatened species (vascular plants). National: ","Ex-situ conservation, Awareness & communications, Legislation, Policies and regulations","Wetland(20.26%), Mixed forest(8.96%), Barren lands(48.19%), Temperate or sub-polar shrubland(17.12%), Water(4.08%), ","Newfoundland and Labrador","Fernald's Braya(Braya fernaldii), "
NL090,"Brig Bay","Brig Bay",51.06,-56.92,0,7,0.08,"2024-07-24 00:00:00",0,1,National,"Global: A1 - Threatened species (vascular plants). National: ","Legislation, Ex-situ conservation, Policies and regulations, Awareness & communications","Temperate or sub-polar shrubland(15.04%), Barren lands(75.89%), ","Newfoundland and Labrador","Fernald's Braya(Braya fernaldii), "
NL091,"Burnt Cape","Burnt Cape",51.57,-55.75,0,77,3.61,"2024-07-24 00:00:00",100,0,National,"Global: A1 - Threatened species (vascular plants). National: ","Site/area protection","Wetland(4.6%), Temperate or sub-polar shrubland(10.11%), Water(11.8%), Temperate or sub-polar needleleaf forest(5.63%), Sub-polar taiga needleleaf forest(2.58%), Barren lands(61.68%), Mixed forest(3.59%), ","Newfoundland and Labrador","Fernald's Braya(Braya fernaldii), "
NL092,"Green Island Brook","Green Island Brook",51.40,-56.53,9,18,0.14,"2024-07-24 00:00:00",0,0,National,"Global: A1 - Threatened species (vascular plants). National: ","Legislation, Policies and regulations, Ex-situ conservation, Awareness & communications","Barren lands(15.42%), Temperate or sub-polar shrubland(13.92%), Wetland(31.22%), Urban(34.82%), ","Newfoundland and Labrador","Fernald's Braya(Braya fernaldii), "
NL093,"Port au Choix","Port au Choix",50.70,-57.39,0,48,8.63,"2024-07-24 00:00:00",0,0,National,"Global: A1 - Threatened species (vascular plants). National: A1 - Threatened species (vascular plants); B1 - Individual geographically restricted species (vascular plants)","Legislation, Awareness & communications, Policies and regulations, Site/area protection","Urban(5.93%), Barren lands(25.25%), Water(12.7%), Temperate or sub-polar shrubland(12.15%), Wetland(19.63%), Mixed forest(7.88%), Temperate or sub-polar needleleaf forest(16.42%), ","Newfoundland and Labrador","Griscom's Arnica(Arnica griscomii ssp. griscomii), Fernald's Braya(Braya fernaldii), "
NL094,"Sandy Cove Airstrip","Bande d’atterrissage de Sandy Cove",51.34,-56.69,0,2,0.2,"2024-07-24 00:00:00",28,1,National,"Global: A1 - Threatened species (vascular plants); B1 - Individual geographically restricted species (vascular plants). National: ","Ex-situ conservation, Policies and regulations, Site/area protection, Legislation, Awareness & communications","Urban(49.78%), Temperate or sub-polar shrubland(13.73%), Temperate or sub-polar needleleaf forest(11.01%), Water(3.13%), Barren lands(15.61%), Wetland(3.71%), Mixed forest(2.59%), ","Newfoundland and Labrador","Long's Braya(Braya longii), "
NL095,"Sandy Cove Ecological Reserve","Sandy Cove Ecological Reserve",51.35,-56.66,0,3,0.41,"2024-07-24 00:00:00",11,1,National,"Global: A1 - Threatened species (vascular plants); B1 - Individual geographically restricted species (vascular plants). National: ","Ex-situ conservation, Policies and regulations, Legislation, Awareness & communications, Site/area protection","Water(17.04%), Barren lands(41.7%), Urban(11.01%), Temperate or sub-polar shrubland(21.93%), Temperate or sub-polar needleleaf forest(1.28%), Wetland(5.1%), ","Newfoundland and Labrador","Long's Braya(Braya longii), "
NL096,"Shoal Cove","Shoal Cove",51.36,-56.64,0,2,0.12,"2024-07-24 00:00:00",0,1,National,"Global: A1 - Threatened species (vascular plants); B1 - Individual geographically restricted species (vascular plants). National: ","Awareness & communications, Policies and regulations, Ex-situ conservation, Legislation","Barren lands(14.08%), Temperate or sub-polar shrubland(5.96%), Urban(78.5%), ","Newfoundland and Labrador","Long's Braya(Braya longii), Fernald's Braya(Braya fernaldii), "
NL097,"Watts Point to Cape Norman","Watts Point à Cape Norman",51.52,-56.11,0,46,126.58,"2024-07-24 00:00:00",8,0,National,"Global: A1 - Threatened species (vascular plants); B1 - Individual geographically restricted species (vascular plants). National: ","Site/area protection, Awareness & communications, Policies and regulations, Compliance and enforcement, Legislation, Ex-situ conservation","Temperate or sub-polar needleleaf forest(15.85%), Water(16.21%), Wetland(20.06%), Temperate or sub-polar grassland(0.12%), Sub-polar or polar barren-lichen-moss(0.06%), Temperate or sub-polar shrubland(6.65%), Barren lands(33.2%), Mixed forest(4.07%), Sub-polar or polar grassland-lichen-moss(0%), Urban(1.01%), Sub-polar taiga needleleaf forest(2.76%), ","Newfoundland and Labrador","Barrens Willow(Salix jejuna), Fernald's Braya(Braya fernaldii), "
NL098,"Yankee Point","Yankee Point",51.32,-56.71,2,9,0.14,"2024-07-24 00:00:00",0,0,National,"Global: A1 - Threatened species (vascular plants); B1 - Individual geographically restricted species (vascular plants). National: ","Site/area protection, Habitat & natural process restoration, Ex-situ conservation, Legislation, Awareness & communications, Policies and regulations","Temperate or sub-polar shrubland(14.93%), Temperate or sub-polar broadleaf deciduous forest(11.05%), Temperate or sub-polar needleleaf forest(15.85%), Barren lands(17.68%), Urban(36.51%), ","Newfoundland and Labrador","Long's Braya(Braya longii), "
NL099,"Killdevil Mountain","Mont Killdevil",49.50,-57.74,359,672,2.33,"2024-07-24 00:00:00",100,1,National,"Global: . National: A1 - Threatened species (sensitive species)","Policies and regulations, Site/area protection","Temperate or sub-polar needleleaf forest(10.19%), Wetland(5.37%), Mixed forest(23.55%), Temperate or sub-polar shrubland(35.45%), Barren lands(25.41%), ","Newfoundland and Labrador",
NL100,"The Tablelands","Les Tablelands",49.44,-58.01,9,721,88.57,"2024-07-24 00:00:00",100,0,National,"Global: A1 - Threatened species (vascular plants); B1 - Individual geographically restricted species (vascular plants). National: ","Site/area management, Site/area protection","Mixed forest(1.81%), Wetland(27.77%), Temperate or sub-polar needleleaf forest(1.31%), Barren lands(57.58%), Temperate or sub-polar shrubland(5.92%), Water(5.62%), ","Newfoundland and Labrador","Newfoundland Chickweed(Cerastium terrae-novae), "
NS001,"Bird Islands","Bird Islands",46.38,-60.38,0,23,10.89,"2024-04-17 00:00:00",1,0,National,"Global: . National: D1 - Demographic aggregations (birds)","Resource & habitat protection, Policies and regulations, Site/area protection","Temperate or sub-polar grassland(0.07%), Temperate or sub-polar needleleaf forest(0.09%), Wetland(0.11%), Water(98.63%), Temperate or sub-polar shrubland(0.99%), Barren lands(0.06%), ","Nova Scotia","Razorbill(Alca torda), "
NS003,"The Brothers","The Brothers",43.63,-65.83,0,0,0.39,"2024-04-17 00:00:00",2,0,National,"Global: . National: A1 - Threatened species (birds); B1 - Individual geographically restricted species (birds); D1 - Demographic aggregations (birds)","Species recovery, Resource & habitat protection, Policies and regulations, Species management, Site/area management, Site/area protection","Water(99.58%), ","Nova Scotia","Roseate Tern(Sterna dougallii), "
NS009,"Pomquet Beach Region","Pomquet Beach Region",45.68,-61.85,0,127,37.88,"2023-09-20 00:00:00",56,0,National,"Global: . National: A1 - Threatened species (birds)","Site/area protection, Legislation, Policies and regulations, Awareness & communications","Temperate or sub-polar needleleaf forest(8.75%), Cropland(5.9%), Barren lands(0.45%), Temperate or sub-polar broadleaf deciduous forest(8.74%), Mixed forest(13.06%), Temperate or sub-polar grassland(3.48%), Water(56.62%), Urban(2.6%), Wetland(0.35%), Temperate or sub-polar shrubland(0.04%), ","Nova Scotia","Piping Plover(Charadrius melodus melodus), "
NS014,Musquodoboit,Musquodoboit,44.70,-63.12,0,47,28.54,"2022-08-18 00:00:00",6,0,Global,"Global: D1 - Demographic aggregations (birds). National: D1 - Demographic aggregations (birds)","Site/area protection","Temperate or sub-polar grassland(1.32%), Temperate or sub-polar needleleaf forest(33.48%), Mixed forest(3.86%), Urban(1.38%), Temperate or sub-polar broadleaf deciduous forest(0.61%), Wetland(0.05%), Barren lands(0.27%), Water(59.02%), ","Nova Scotia","Semipalmated Plover(Charadrius semipalmatus), "
NS015,"Bon Portage Island","Bon Portage Island",43.47,-65.75,0,6,27.95,"2024-04-17 00:00:00",0,0,National,"Global: A1 - Threatened species (birds). National: A1 - Threatened species (birds)","Awareness & communications, Site/area protection, Resource & habitat protection","Temperate or sub-polar needleleaf forest(2.04%), Water(95.65%), Temperate or sub-polar broadleaf deciduous forest(0.72%), Mixed forest(1.48%), Temperate or sub-polar grassland(0.08%), ","Nova Scotia","Leach's Storm-Petrel(Hydrobates leucorhous), Leach's Storm-Petrel(Hydrobates leucorhous pop. 1), "
NS016,"Eastern Cape Sable Island","Eastern Cape Sable Island",43.43,-65.61,0,15,33.62,"2022-08-18 00:00:00",1,0,Global,"Global: D1 - Demographic aggregations (birds). National: A1 - Threatened species (birds); D1 - Demographic aggregations (birds)","Site/area protection, Awareness & communications","Temperate or sub-polar broadleaf deciduous forest(5.49%), Barren lands(0.29%), Urban(3.64%), Wetland(0.02%), Mixed forest(7.87%), Temperate or sub-polar needleleaf forest(4.75%), Water(76.95%), Temperate or sub-polar grassland(0.99%), ","Nova Scotia","Dovekie(Alle alle), Short-billed Dowitcher(Limnodromus griseus), Sanderling(Calidris alba), Roseate Tern(Sterna dougallii), Piping Plover(Charadrius melodus melodus), Semipalmated Plover(Charadrius semipalmatus), Northern Gannet(Morus bassanus), Semipalmated Sandpiper(Calidris pusilla), "
NS017,"South Shore (Roseway to Baccaro)","South Shore (Roseway to Baccaro)",43.58,-65.35,0,38,63.02,"2023-10-05 00:00:00",7,0,National,"Global: . National: A1 - Threatened species (birds, vascular plants); B1 - Individual geographically restricted species (vascular plants)","Site/area protection, Site/area management","Cropland(0.06%), Temperate or sub-polar grassland(0.38%), Barren lands(0.16%), Mixed forest(23.16%), Water(58.51%), Urban(2.84%), Temperate or sub-polar needleleaf forest(10.4%), Temperate or sub-polar broadleaf deciduous forest(4.49%), ","Nova Scotia","Thread-leaved Sundew(Drosera filiformis), Piping Plover(Charadrius melodus melodus), "
NS019,"Cobequid Bay","Cobequid Bay",45.35,-63.76,0,214,574.92,"2023-10-05 00:00:00",1,0,National,"Global: D1 - Demographic aggregations (birds). National: A1 - Threatened species (invertebrates); B1 - Individual geographically restricted species (invertebrates); D1 - Demographic aggregations (birds)","Species recovery, Site/area protection, Site/area management, Legislation, Awareness & communications","Temperate or sub-polar shrubland(0.11%), Urban(2.35%), Cropland(10.58%), Mixed forest(5.04%), Wetland(1.24%), Temperate or sub-polar needleleaf forest(4.28%), Temperate or sub-polar grassland(0.82%), Water(71.92%), Barren lands(0.06%), Temperate or sub-polar broadleaf deciduous forest(3.61%), ","Nova Scotia","Atlantic Mud-piddock(Barnea truncata), Semipalmated Sandpiper(Calidris pusilla), "
NS020,"Southern Bight, Minas Basin","Southern Bight, Minas Basin",45.13,-64.24,0,92,225.36,"2024-05-22 00:00:00",0,0,National,"Global: A1 - Threatened species (vascular plants); D1 - Demographic aggregations (birds). National: A1 - Threatened species (birds, invertebrates); B1 - Individual geographically restricted species (vascular plants); D1 - Demographic aggregations (birds)","Site/area management, Site/area protection, Awareness & communications, Legislation","Temperate or sub-polar grassland(0.56%), Mixed forest(4.96%), Temperate or sub-polar needleleaf forest(1.27%), Cropland(30.45%), Wetland(0.72%), Barren lands(0.04%), Temperate or sub-polar shrubland(0.03%), Urban(7.65%), Temperate or sub-polar broadleaf deciduous forest(4.9%), Water(49.42%), ","Nova Scotia","Roland's Sea-blite(Suaeda rolandii), Chimney Swift(Chaetura pelagica), Atlantic Mud-piddock(Barnea truncata), Semipalmated Sandpiper(Calidris pusilla), Big-leaved Marsh-elder(Iva frutescens), "
NS021,"Brier Island and Offshore Waters","Brier Island and Offshore Waters",44.30,-66.30,0,103,286.94,"2024-04-17 00:00:00",2,0,National,"Global: B1 - Individual geographically restricted species (vascular plants). National: A1 - Threatened species (fungi and lichens); D1 - Demographic aggregations (birds)","Site/area protection, Site/area management, Legislation, Resource & habitat protection, Awareness & communications, Formal education, Invasive/problematic species control","Urban(1.01%), Wetland(0.01%), Temperate or sub-polar shrubland(0%), Mixed forest(7.32%), Temperate or sub-polar grassland(0.03%), Temperate or sub-polar broadleaf deciduous forest(2.36%), Water(80.89%), Cropland(0.77%), Temperate or sub-polar needleleaf forest(7.59%), Barren lands(0%), ","Nova Scotia","Red Phalarope(Phalaropus fulicarius), Eastern Mountain Avens(Geum peckii), Hairy-spined Shield Lichen(Hypotrachyna horrescens), "
NS027,"Eastern Shore Islands","Eastern Shore Islands",44.88,-62.19,0,16,86.82,"2024-09-25 00:00:00",1,0,National,"Global: A1 - Threatened species (birds). National: A1 - Threatened species (birds)","Site/area protection, Site/area management","Temperate or sub-polar broadleaf deciduous forest(0.12%), Temperate or sub-polar grassland(0.22%), Temperate or sub-polar shrubland(0.02%), Water(99.36%), Barren lands(0.05%), Temperate or sub-polar needleleaf forest(0.2%), Mixed forest(0.03%), ","Nova Scotia","Leach's Storm-Petrel(Hydrobates leucorhous pop. 1), Leach's Storm-Petrel(Hydrobates leucorhous), "
NS028,"Country Island Complex","Country Island Complex",45.10,-61.54,0,15,19.72,"2024-09-25 00:00:00",1,0,National,"Global: A1 - Threatened species (birds). National: A1 - Threatened species (birds)","Resource & habitat protection, Site/area protection, Site/area management, Invasive/problematic species control","Mixed forest(0.08%), Temperate or sub-polar broadleaf deciduous forest(0.87%), Temperate or sub-polar shrubland(0.04%), Wetland(0.05%), Temperate or sub-polar needleleaf forest(1.6%), Temperate or sub-polar grassland(0.36%), Water(96.98%), ","Nova Scotia","Leach's Storm-Petrel(Hydrobates leucorhous), Leach's Storm-Petrel(Hydrobates leucorhous pop. 1), Roseate Tern(Sterna dougallii), "
NS072,"Barrington Lake","Barrington Lake",43.61,-65.57,10,21,3.28,"2022-09-19 00:00:00",0,0,National,"Global: . National: Threatened vascular plants (A1); Geographically restricted vascular plants (individual species) (B1)",Legislation,"Urban(3.71%), Temperate or sub-polar broadleaf deciduous forest(11.05%), Mixed forest(32.19%), Water(46.82%), Temperate or sub-polar needleleaf forest(6.17%), ","Nova Scotia","Tubercled Spikerush(Eleocharis tuberculosa), "
NS073,"Belliveau Lake","Belliveau Lake",44.33,-66.04,49,62,4.62,"2022-09-19 00:00:00",4,0,National,"Global: . National: Threatened vascular plants (A1)","Awareness & communications, Site/area protection","Mixed forest(16.69%), Water(50.74%), Urban(2.76%), Temperate or sub-polar grassland(0.56%), Temperate or sub-polar needleleaf forest(6.49%), Temperate or sub-polar broadleaf deciduous forest(22.73%), ","Nova Scotia","Spotted Pondweed(Potamogeton pulcher), Coastal Sweet Pepperbush(Clethra alnifolia), "
NS074,"Fancy Lake","Fancy Lake",44.32,-64.55,60,73,6.4,"2022-09-19 00:00:00",0,0,National,"Global: . National: A1 - Threatened species (vascular plants); B1 - Individual geographically restricted species (vascular plants)","Site/area protection, Legislation","Temperate or sub-polar grassland(0.89%), Cropland(1.56%), Water(63.97%), Temperate or sub-polar needleleaf forest(6.67%), Temperate or sub-polar broadleaf deciduous forest(7.55%), Urban(5.12%), Mixed forest(14.25%), ","Nova Scotia","Golden-crest(Lophiola aurea), "
NS075,"Gold and Western Lakes","Gold and Western Lakes",43.85,-65.46,46,57,4.9,"2022-09-19 00:00:00",0,0,National,"Global: . National: Threatened vascular plants (A1)",Legislation,"Water(40.89%), Urban(0.45%), Temperate or sub-polar needleleaf forest(7.23%), Mixed forest(46.01%), Temperate or sub-polar broadleaf deciduous forest(5.28%), ","Nova Scotia","Tubercled Spikerush(Eleocharis tuberculosa), "
NS076,"Great Pubnico Lake","Great Pubnico Lake",43.72,-65.68,39,53,30.66,"2022-09-19 00:00:00",0,0,National,"Global: . National: Threatened vascular plants (A1); Geographically restricted vascular plants (individual species) (B1)",Legislation,"Water(63.15%), Urban(0.23%), Temperate or sub-polar needleleaf forest(3.6%), Temperate or sub-polar broadleaf deciduous forest(2.82%), Mixed forest(30.18%), ","Nova Scotia","Tubercled Spikerush(Eleocharis tuberculosa), "
NS077,"Harpers Lake","Harpers Lake",43.81,-65.46,36,49,4,"2022-09-19 00:00:00",0,0,National,"Global: . National: A1 - Threatened species (vascular plants)",Legislation,"Cropland(0.92%), Temperate or sub-polar needleleaf forest(3.99%), Water(63.14%), Temperate or sub-polar broadleaf deciduous forest(3.11%), Urban(0.14%), Mixed forest(28.66%), ","Nova Scotia","Tubercled Spikerush(Eleocharis tuberculosa), "
NS078,"LaHave River Estuary","LaHave River Estuary",44.36,-64.45,0,19,5.94,"2022-09-19 00:00:00",0,0,National,"Global: . National: Threatened vascular plants (A1); Geographically restricted vascular plants (individual species) (B1)",,"Temperate or sub-polar broadleaf deciduous forest(0.53%), Water(82.54%), Cropland(0.11%), Mixed forest(2.16%), Urban(11.7%), Temperate or sub-polar grassland(0.19%), Temperate or sub-polar needleleaf forest(2.73%), ","Nova Scotia","Eastern Lilaeopsis(Lilaeopsis chinensis), "
NS079,"Medway River Estuary","Medway River Estuary",44.13,-64.61,0,6,2.08,"2022-09-01 00:00:00",0,0,National,"Global: . National: Threatened vascular plants (A1); Geographically restricted vascular plants (individual species) (B1)",,"Temperate or sub-polar grassland(0.64%), Water(85.31%), Mixed forest(3.65%), Temperate or sub-polar needleleaf forest(5.75%), Temperate or sub-polar broadleaf deciduous forest(1.95%), Urban(2.66%), ","Nova Scotia","Eastern Lilaeopsis(Lilaeopsis chinensis), "
NS080,"Port La Tour Bogs","Port La Tour Bogs",43.54,-65.51,0,25,24.52,"2022-09-19 00:00:00",34,0,National,"Global: . National: Threatened vascular plants (A1)","Site/area protection, Site/area management","Mixed forest(76.98%), Temperate or sub-polar grassland(1.12%), Temperate or sub-polar broadleaf deciduous forest(4.05%), Urban(0.36%), Temperate or sub-polar needleleaf forest(15.1%), Water(2.39%), ","Nova Scotia","Thread-leaved Sundew(Drosera filiformis), "
NS081,"River Philip Estuary","River Philip Estuary",45.78,-63.79,0,13,2.9,"2022-09-19 00:00:00",52,0,National,"Global: . National: Threatened vascular plants (A1); Geographically restricted vascular plants (individual species) (B1)",,"Cropland(4.41%), Temperate or sub-polar broadleaf deciduous forest(1.17%), Wetland(1.86%), Temperate or sub-polar grassland(0.28%), Urban(1.82%), Mixed forest(4.95%), Water(76.13%), Temperate or sub-polar needleleaf forest(9.37%), ","Nova Scotia","Eastern Lilaeopsis(Lilaeopsis chinensis), "
NS082,"Roseway River Estuary","Roseway River Estuary",43.76,-65.33,0,13,1.18,"2022-09-19 00:00:00",0,0,National,"Global: . National: Threatened vascular plants (A1)",,"Temperate or sub-polar needleleaf forest(9.24%), Temperate or sub-polar broadleaf deciduous forest(2%), Urban(7.11%), Mixed forest(10.95%), Water(70.43%), ","Nova Scotia","Eastern Lilaeopsis(Lilaeopsis chinensis), "
NS083,"Carrigan Lake","Carrigan Lake",44.28,-65.08,83,93,2.14,"2023-08-28 00:00:00",12,0,National,"Global: . National: A1 - Threatened species (vascular plants); B1 - Individual geographically restricted species (vascular plants)","Site/area management, Legislation, Site/area protection","Temperate or sub-polar broadleaf deciduous forest(2.69%), Temperate or sub-polar grassland(0.9%), Water(60.74%), Mixed forest(25.12%), Temperate or sub-polar needleleaf forest(10.54%), ","Nova Scotia","Tall Beakrush(Rhynchospora macrostachya), Spotted Pondweed(Potamogeton pulcher), "
NS084,"Pretty Mary, Mudflat and Mill Lakes","Pretty Mary, Mudflat and Mill Lakes",44.47,-65.16,117,147,6.91,"2023-08-28 00:00:00",0,0,National,"Global: . National: A1 - Threatened species (vascular plants); B1 - Individual geographically restricted species (vascular plants)","Awareness & communications","Urban(5.59%), Temperate or sub-polar broadleaf deciduous forest(7.3%), Temperate or sub-polar grassland(0.4%), Water(26.13%), Mixed forest(37.71%), Temperate or sub-polar needleleaf forest(22.88%), ","Nova Scotia","Coastal Sweet Pepperbush(Clethra alnifolia), "
NS085,"Tusket River and Estuary","Tusket River and Estuary",43.93,-65.81,0,74,262.08,"2023-08-28 00:00:00",11,0,National,"Global: . National: Threatened vascular plants (A1); Geographically restricted vascular plants (individual species) (B1)","Invasive/problematic species control, Site/area protection, Legislation, Species recovery, Site/area management, Awareness & communications, Formal education","Water(31.69%), Wetland(0.01%), Cropland(0.91%), Temperate or sub-polar grassland(0.52%), Mixed forest(35.99%), Temperate or sub-polar needleleaf forest(14.59%), Urban(4.08%), Temperate or sub-polar broadleaf deciduous forest(12.22%), Barren lands(0%), ","Nova Scotia","Maleberry(Lyonia ligustrina), Eastern Baccharis(Baccharis halimifolia), Coastal Sweet Pepperbush(Clethra alnifolia), Eastern Lilaeopsis(Lilaeopsis chinensis), Big-leaved Marsh-elder(Iva frutescens), Spotted Pondweed(Potamogeton pulcher), Water Pennywort(Hydrocotyle umbellata), Coastal Plain Joe Pye Weed(Eutrochium dubium), Plymouth Gentian(Sabatia kennedyana), Pink Coreopsis(Coreopsis rosea), Saltmarsh False Foxglove(Agalinis maritima), "
NT002,"Whooping Crane Nesting Area and Summer Range","Whooping Crane Nesting Area and Summer Range",60.33,-113.25,200,300,9360.464,"2022-08-18 00:00:00",97,0,Global,"Global: Threatened birds (A1). National: Threatened birds (A1)","Site/area protection, Site/area management","Water(4.74%), Temperate or sub-polar grassland(12.02%), Temperate or sub-polar broadleaf deciduous forest(2.04%), Mixed forest(6.82%), Temperate or sub-polar shrubland(14.31%), Wetland(19.58%), Temperate or sub-polar needleleaf forest(39.49%), ","Northwest Territories","Whooping Crane(Grus americana), "
NT109,"Baillie Island","Baillie Island",70.58,-128.27,0,1,20.73,"2022-10-15 00:00:00",0,0,Global,"Global: A1 - Threatened species (vascular plants). National: ","Site/area management, Awareness & communications","Wetland(1.12%), Sub-polar or polar shrubland-lichen-moss(1.88%), Barren lands(0.7%), Sub-polar taiga needleleaf forest(0.14%), Sub-polar or polar barren-lichen-moss(28.28%), Water(18.77%), Sub-polar or polar grassland-lichen-moss(49.13%), ","Northwest Territories","Hairy Braya(Braya pilosa), "
NT110,"Big Fish River - Little Fish Creek","Big Fish River - Little Fish Creek",68.30,-136.32,206,415,3.2,"2022-08-29 00:00:00",0,0,National,"Global: . National: D1 - Demographic aggregations (fishes)","Compliance and enforcement, Species management, Policies and regulations","Sub-polar or polar grassland-lichen-moss(4.24%), Water(53.08%), Temperate or sub-polar shrubland(0.69%), Sub-polar or polar shrubland-lichen-moss(22.97%), Barren lands(3.54%), Temperate or sub-polar needleleaf forest(5.7%), Wetland(9.48%), Sub-polar taiga needleleaf forest(0.18%), ","Northwest Territories","Dolly Varden(Salvelinus malma pop. 3), "
NT111,"Cape Bathurst South","Cape Bathurst South",70.38,-127.83,0,33,69.02,"2022-10-15 00:00:00",0,0,National,"Global: Threatened vascular plants (A1); Geographically restricted vascular plants (individual species) (B1). National: ","Awareness & communications, Site/area management","Water(6.12%), Barren lands(0.31%), Sub-polar or polar grassland-lichen-moss(74.34%), Temperate or sub-polar needleleaf forest(0.06%), Sub-polar or polar barren-lichen-moss(11.42%), Wetland(2.12%), Sub-polar taiga needleleaf forest(1.66%), Sub-polar or polar shrubland-lichen-moss(3.97%), ","Northwest Territories","Hairy Braya(Braya pilosa), "
NT112,"Cape Bathurst North","Cape Bathurst North",70.53,-127.96,0,5,97.29,"2022-10-15 00:00:00",0,0,National,"Global: Threatened vascular plants (A1); Geographically restricted vascular plants (individual species) (B1). National: ","Site/area management, Awareness & communications","Sub-polar taiga needleleaf forest(0.67%), Wetland(1.21%), Sub-polar or polar shrubland-lichen-moss(13.17%), Sub-polar or polar barren-lichen-moss(8.9%), Sub-polar or polar grassland-lichen-moss(66.13%), Temperate or sub-polar needleleaf forest(0.03%), Water(9.44%), Barren lands(0.46%), ","Northwest Territories","Hairy Braya(Braya pilosa), "
NT113,"Nahanni National Park Reserve: 86-030","Nahanni National Park Reserve: 86-030",61.39,-126.74,664,728,0.17,"2022-09-16 00:00:00",100,0,Global,"Global: B1 - Individual geographically restricted species (vascular plants). National: ","Awareness & communications, Resource & habitat protection, Site/area protection, Site/area management","Wetland(7.12%), Temperate or sub-polar needleleaf forest(81.61%), Temperate or sub-polar grassland(6.59%), Mixed forest(4.08%), ","Northwest Territories","Nahanni Aster(Symphyotrichum nahanniense), "
NT114,"Nahanni National Park Reserve: Old Pots","Nahanni National Park Reserve: Old Pots",61.55,-126.48,528,722,1.51,"2022-08-30 00:00:00",100,0,Global,"Global: B1 - Individual geographically restricted species (vascular plants). National: ","Site/area management, Awareness & communications, Site/area protection, Resource & habitat protection","Mixed forest(0.89%), Temperate or sub-polar needleleaf forest(96.65%), Wetland(0.99%), Water(1.14%), ","Northwest Territories","Nahanni Aster(Symphyotrichum nahanniense), "
NT115,"Nahanni National Park Reserve: Wildmint","Nahanni National Park Reserve: Wildmint",61.43,-126.58,620,699,1.25,"2022-08-30 00:00:00",100,0,Global,"Global: B1 - Individual geographically restricted species (vascular plants). National: ","Site/area protection, Site/area management, Awareness & communications, Resource & habitat protection","Mixed forest(16.32%), Water(0.85%), Temperate or sub-polar shrubland(0.53%), Barren lands(1.3%), Temperate or sub-polar grassland(3.74%), Temperate or sub-polar needleleaf forest(65.8%), Temperate or sub-polar broadleaf deciduous forest(1.28%), Wetland(10.16%), ","Northwest Territories","Nahanni Aster(Symphyotrichum nahanniense), "
NT116,"Rat River - Fish Creek","Rat River - Fish Creek",67.87,-136.33,294,668,9.97,"2023-05-09 00:00:00",86,0,National,"Global: . National: Aggregations of fishes (D1)","Policies and regulations, Compliance and enforcement, Species management, Site/area protection","Mixed forest(8.81%), Temperate or sub-polar grassland(0.34%), Sub-polar or polar shrubland-lichen-moss(21.61%), Wetland(12.33%), Sub-polar taiga needleleaf forest(1.53%), Temperate or sub-polar needleleaf forest(23.88%), Barren lands(6.86%), Temperate or sub-polar shrubland(1.65%), Water(21.35%), Sub-polar or polar grassland-lichen-moss(1.64%), ","Northwest Territories","Dolly Varden(Salvelinus malma pop. 3), "
NU007,"Akpatok Island","Akpatok Island",60.42,-68.13,0,300,1052.316,"2022-08-18 00:00:00",0,0,Global,"Global: Aggregations of birds (D1). National: Aggregations of birds (D1)","Site/area protection","Water(16.27%), Barren lands(68.66%), Sub-polar or polar grassland-lichen-moss(1.71%), Sub-polar or polar barren-lichen-moss(13.32%), ",Nunavut,"Thick-billed Murre(Uria lomvia), "
NU036,"Akimiski Island","Akimiski Island",53.16,-81.66,0,28,3226.66,"2022-08-18 00:00:00",81,0,Global,"Global: D1 - Demographic aggregations (birds). National: A1 - Threatened species (birds); D1 - Demographic aggregations (birds)",Legislation,"Sub-polar or polar grassland-lichen-moss(0.05%), Sub-polar or polar barren-lichen-moss(0.06%), Sub-polar taiga needleleaf forest(0.07%), Wetland(37.98%), Water(49.95%), Temperate or sub-polar shrubland(1.6%), Temperate or sub-polar grassland(0%), Temperate or sub-polar needleleaf forest(10.28%), ",Nunavut,"Semipalmated Sandpiper(Calidris pusilla), Marbled Godwit(Limosa fedoa), Brant(Branta bernicla), Snow Goose(Anser caerulescens), Hudsonian Godwit(Limosa haemastica), "
NU112,"Quttinirpaaq National Park - Tanquary Fiord","Quttinirpaaq National Park - Tanquary Fiord",81.38,-76.70,12,1231,47.47,"2023-05-08 00:00:00",100,0,National,"Global: . National: A1 - Threatened species (nonvascular plants)","Site/area protection, Resource & habitat protection, Site/area management","Water(0.34%), Barren lands(72.1%), Sub-polar or polar grassland-lichen-moss(13.1%), Sub-polar or polar barren-lichen-moss(13.67%), ",Nunavut,"Porsild's Bryum(Haplodontium macrocarpum), "
ON001,"Long Point Peninsula and Marshes","Long Point Peninsula and Marshes",42.59,-80.30,168,203,286.9,"2024-04-17 00:00:00",15,0,National,"Global: D1 - Demographic aggregations (birds). National: A1 - Threatened species (amphibians and reptiles, birds, fishes, vascular plants, sensitive species); B1 - Individual geographically restricted species (amphibians and reptiles, fishes, vascular plants); B4 - Geographically restricted ecosystem types (grasslands and shrublands); D1 - Demographic aggregations (birds)","Awareness & communications, Habitat & natural process restoration, Site/area management, Species management, Invasive/problematic species control, Site/area protection, Resource & habitat protection","Temperate or sub-polar needleleaf forest(2.66%), Wetland(3.44%), Barren lands(1.31%), Water(83.17%), Temperate or sub-polar shrubland(1.46%), Mixed forest(4%), Cropland(1.8%), Temperate or sub-polar broadleaf deciduous forest(0.71%), Urban(1.25%), Temperate or sub-polar grassland(0.19%), ",Ontario,"Red-breasted Merganser(Mergus serrator), Tundra Swan(Cygnus columbianus), Bent Spike-rush - Great Lakes Plains population(Eleocharis geniculata pop. 2), Greater Scaup(Aythya marila), Blanding's Turtle(Emydoidea blandingii pop. 2), Lake Chubsucker(Erimyzon sucetta), Whimbrel(Numenius phaeopus), Bank Swallow(Riparia riparia), Broad-winged Sedge(Carex alata), Common Grackle(Quiscalus quiscula), Common Merganser(Mergus merganser), Pugnose Shiner(Notropis anogenus), Canvasback(Aythya valisineria), Redhead(Aythya americana), Fowler's Toad(Anaxyrus fowleri), Double-crested Cormorant(Nannopterum auritum), Warmouth(Lepomis gulosus), Spotted Gar(Lepisosteus oculatus), Spiny Softshell Turtle(Apalone spinifera), Chimney Swift(Chaetura pelagica), Black-edged Sedge(Carex nigromarginata), Bonaparte's Gull(Chroicocephalus philadelphia), Horsetail Spike-rush(Eleocharis equisetoides), Little Gull(Hydrocoloeus minutus), "
ON011,"Aylmer Wildlife Management Area","Aylmer Wildlife Management Area",42.81,-80.95,228,245,10.29,"2024-04-17 00:00:00",0,0,National,"Global: D1 - Demographic aggregations (birds). National: D1 - Demographic aggregations (birds)","Species management, Resource & habitat protection, Site/area management, Site/area protection","Temperate or sub-polar needleleaf forest(0.05%), Barren lands(0.13%), Urban(8.71%), Mixed forest(2.97%), Water(0.68%), Temperate or sub-polar broadleaf deciduous forest(0.71%), Cropland(86.71%), ",Ontario,"Tundra Swan(Cygnus columbianus), "
ON022,"West End of Lake Ontario","West End of Lake Ontario",43.23,-79.46,70,91,685.18,"2024-09-05 00:00:00",0,0,National,"Global: A1 - Threatened species (birds); D1 - Demographic aggregations (birds). National: D1 - Demographic aggregations (birds)",,"Mixed forest(0.32%), Barren lands(0.13%), Temperate or sub-polar needleleaf forest(0.06%), Wetland(0.07%), Temperate or sub-polar shrubland(0.09%), Water(95.79%), Temperate or sub-polar grassland(0.04%), Cropland(0.48%), Temperate or sub-polar broadleaf deciduous forest(0.03%), Urban(3%), ",Ontario,"Long-tailed Duck(Clangula hyemalis), Greater Scaup(Aythya marila), Tundra Swan(Cygnus columbianus), White-winged Scoter(Melanitta deglandi), Red-breasted Merganser(Mergus serrator), Double-crested Cormorant(Nannopterum auritum), "
ON034,"Holiday Beach and Big Creek Conservation Areas","Holiday Beach and Big Creek Conservation Areas",42.04,-83.06,170,180,10.84,"2024-04-19 00:00:00",0,0,National,"Global: D1 - Demographic aggregations (birds). National: A1 - Threatened species (birds); D1 - Demographic aggregations (birds)","Site/area management, Site/area protection","Wetland(13.45%), Temperate or sub-polar shrubland(3.71%), Water(45.6%), Cropland(16.05%), Urban(6.65%), Sub-polar taiga needleleaf forest(0.71%), Mixed forest(2.22%), Temperate or sub-polar broadleaf deciduous forest(11.35%), Sub-polar or polar grassland-lichen-moss(0.15%), Temperate or sub-polar needleleaf forest(0.09%), ",Ontario,"Chimney Swift(Chaetura pelagica), Canvasback(Aythya valisineria), "
ON038,"Leslie Street Spit","Leslie Street Spit",43.63,-79.33,74,90,10.84,"2022-08-18 00:00:00",33,0,Global,"Global: D1 - Demographic aggregations (birds). National: A1 - Threatened species (birds); D1 - Demographic aggregations (birds)","Awareness & communications, Site/area management, Site/area protection","Temperate or sub-polar broadleaf deciduous forest(0.6%), Temperate or sub-polar shrubland(2.03%), Water(71%), Wetland(0.46%), Barren lands(2.9%), Urban(17.75%), Mixed forest(4.18%), Temperate or sub-polar needleleaf forest(0.84%), Cropland(0.25%), ",Ontario,"Double-crested Cormorant(Nannopterum auritum), Ring-billed Gull(Larus delawarensis), Chimney Swift(Chaetura pelagica), Red-breasted Merganser(Mergus serrator), "
ON146,"Three Sisters Islands","Three Sisters Islands",49.04,-94.68,323,323,6.59,"2024-04-17 00:00:00",1,0,National,"Global: D1 - Demographic aggregations (birds). National: D1 - Demographic aggregations (birds)","Resource & habitat protection, Site/area protection","Water(99.39%), Wetland(0.19%), Temperate or sub-polar grassland(0.3%), ",Ontario,"American White Pelican(Pelecanus erythrorhynchos), "
ON157,"Pei lay sheesh kow","Pei lay sheesh kow",51.35,-80.19,0,18,1979.28,"2022-08-18 00:00:00",7,0,Global,"Global: A1 - Threatened species (birds); D1 - Demographic aggregations (birds). National: A1 - Threatened species (birds); D1 - Demographic aggregations (birds)","Awareness & communications, Site/area protection, Legislation, Site/area management","Wetland(4.82%), Sub-polar or polar grassland-lichen-moss(0%), Temperate or sub-polar needleleaf forest(1.9%), Water(84.3%), Sub-polar taiga needleleaf forest(0.01%), Mixed forest(0.01%), Urban(0.1%), Temperate or sub-polar broadleaf deciduous forest(0.07%), Temperate or sub-polar grassland(0.07%), Temperate or sub-polar shrubland(8.71%), ",Ontario,"Bonaparte's Gull(Chroicocephalus philadelphia), Little Gull(Hydrocoloeus minutus), Northern Pintail(Anas acuta), Lesser Yellowlegs(Tringa flavipes), Tundra Swan(Cygnus columbianus), Ruddy Turnstone(Arenaria interpres), White-rumped Sandpiper(Calidris fuscicollis), Black Scoter(Melanitta americana), Greater Yellowlegs(Tringa melanoleuca), Hudsonian Godwit(Limosa haemastica), Semipalmated Sandpiper(Calidris pusilla), Red Knot(Calidris canutus), Brant(Branta bernicla), Dunlin(Calidris alpina), Long-tailed Duck(Clangula hyemalis), Black-bellied Plover(Pluvialis squatarola), "
ON158,"Frontenac Forests","Frontenac Forests",44.55,-76.44,108,201,428.44,"2024-01-22 00:00:00",25,0,National,"Global: A1 - Threatened species (fungi and lichens). National: A1 - Threatened species (amphibians and reptiles, birds); B1 - Individual geographically restricted species (amphibians and reptiles, birds)","Awareness & communications, Species management, Site/area management, Invasive/problematic species control, Non-monetary values, Site/area protection","Wetland(0.51%), Barren lands(0.36%), Urban(2.98%), Mixed forest(32.3%), Temperate or sub-polar grassland(3.9%), Cropland(1.69%), Temperate or sub-polar needleleaf forest(5.77%), Temperate or sub-polar broadleaf deciduous forest(28.09%), Water(22.86%), Temperate or sub-polar shrubland(1.54%), ",Ontario,"Blanding's Turtle(Emydoidea blandingii pop. 2), Gray Ratsnake(Pantherophis spiloides pop. 1), Northern Map Turtle(Graptemys geographica), Pale-bellied Frost Lichen(Physconia subpallida), Cerulean Warbler(Setophaga cerulea), "
ON169,"Bickford Oak Woods","Bickford Oak Woods",42.78,-82.40,185,191,3.91,"2022-09-21 00:00:00",80,0,National,"Global: . National: A1 - Threatened species (vascular plants)","Resource & habitat protection, Site/area protection","Cropland(8.02%), Temperate or sub-polar needleleaf forest(0.41%), Water(44.34%), Mixed forest(43.49%), Temperate or sub-polar broadleaf deciduous forest(3.67%), ",Ontario,"Swamp Cottonwood(Populus heterophylla), "
ON170,"Canadian Lake Superior","Canadian Lake Superior",48.27,-86.97,136,563,29686.08,"2024-01-04 00:00:00",39,0,National,"Global: B1 - Individual geographically restricted species (fishes). National: A1 - Threatened species (fishes); B1 - Individual geographically restricted species (fishes)","Invasive/problematic species control, Site/area protection, Policies and regulations, Species management","Wetland(0.01%), Temperate or sub-polar broadleaf deciduous forest(0.48%), Cropland(0%), Urban(0%), Mixed forest(0.99%), Water(97.35%), Temperate or sub-polar shrubland(0.26%), Temperate or sub-polar needleleaf forest(0.89%), Temperate or sub-polar grassland(0.02%), Barren lands(0%), Unclassified(0%), ",Ontario,"Pygmy Whitefish(Prosopium coulterii pop. 5), Kiyi(Coregonus kiyi), "
ON171,"Dufresne Island","Dufresne Island",49.79,-94.52,316,326,0.04,"2022-09-21 00:00:00",0,0,National,"Global: . National: A1 - Threatened species (vascular plants); B1 - Individual geographically restricted species (vascular plants)","Site/area management","Water(19.5%), Mixed forest(37.53%), Temperate or sub-polar needleleaf forest(28.01%), Wetland(13.18%), ",Ontario,"Slick-seed Wild Bean(Strophostyles leiosperma), Pale Showy Goldenrod(Solidago pallida), "
ON172,"Puzzle Lake","Puzzle Lake",44.59,-76.96,164,232,47.89,"2022-09-21 00:00:00",78,0,National,"Global: . National: A1 - Threatened species (vascular plants); B1 - Individual geographically restricted species (vascular plants)","Site/area protection","Temperate or sub-polar broadleaf deciduous forest(10.5%), Water(17.38%), Mixed forest(53.9%), Temperate or sub-polar shrubland(0.78%), Wetland(1.36%), Barren lands(0.19%), Temperate or sub-polar needleleaf forest(7.51%), Temperate or sub-polar grassland(8.08%), Urban(0.29%), ",Ontario,"Toothcup - Great Lakes Plains population(Rotala ramosior pop. 1), "
ON173,"Rankin River","Rankin River",44.68,-81.24,182,191,0.25,"2023-02-15 00:00:00",0,0,Global,"Global: A1 - Threatened species (invertebrates); B1 - Individual geographically restricted species (invertebrates). National: ",,"Mixed forest(27.43%), Temperate or sub-polar needleleaf forest(42.9%), Water(17.62%), Cropland(3.24%), Temperate or sub-polar broadleaf deciduous forest(7.38%), ",Ontario,"Hungerford's Crawling Water Beetle(Brychius hungerfordi), "
ON174,"Gull River","Gull River",45.11,-78.60,308,313,0.18,"2022-09-21 00:00:00",0,0,National,"Global: . National: A1 - Threatened species (vascular plants); B1 - Individual geographically restricted species (vascular plants)",Legislation,"Cropland(7.17%), Water(53.32%), Temperate or sub-polar needleleaf forest(10.17%), Urban(15.15%), Mixed forest(12.14%), ",Ontario,"Engelmann's Quillwort(Isoetes engelmannii), "
ON175,"Great Duck Island","Great Duck Island",45.66,-82.95,175,229,14.86,"2023-01-25 00:00:00",0,0,National,"Global: . National: Threatened invertebrates & vascular plants (A1); Geographically restricted vascular plants (individual species) (B1)",,"Temperate or sub-polar needleleaf forest(26.84%), Mixed forest(28.11%), Barren lands(0.07%), Water(5.88%), Temperate or sub-polar broadleaf deciduous forest(38.61%), Temperate or sub-polar grassland(0.49%), ",Ontario,"Pitcher's Thistle(Cirsium pitcheri), Lake Huron Grasshopper(Trimerotropis huroniana), Gillman's Goldenrod(Solidago gillmanii), "
ON176,"Nith River","Nith River",43.24,-80.51,244,308,17.54,"2023-08-18 00:00:00",0,0,National,"Global: . National: Threatened invertebrates (A1)",,"Wetland(0.76%), Temperate or sub-polar broadleaf deciduous forest(5.72%), Barren lands(0.25%), Temperate or sub-polar shrubland(0.19%), Water(7.48%), Temperate or sub-polar needleleaf forest(3.64%), Mixed forest(27.38%), Urban(5.57%), Cropland(49.01%), ",Ontario,"Rapids Clubtail(Phanogomphus quadricolor), "
ON177,"Wainfleet Bog","Wainfleet Bog",42.92,-79.31,174,181,16.52,"2023-08-21 00:00:00",63,0,National,"Global: . National: Threatened amphibians and reptiles (A1); Geographically restricted amphibians and reptiles (individual species) (B1)","Habitat & natural process restoration, Site/area protection, Species management, Site/area management, Resource & habitat protection","Temperate or sub-polar shrubland(7.13%), Temperate or sub-polar needleleaf forest(2.83%), Barren lands(0.04%), Wetland(0.89%), Water(0.64%), Temperate or sub-polar broadleaf deciduous forest(2.03%), Cropland(4.74%), Urban(1.67%), Mixed forest(80.03%), ",Ontario,"Massasauga(Sistrurus catenatus pop. 2), "
ON178,"Severn River","Severn River",44.90,-79.66,190,208,2.38,"2023-08-21 00:00:00",9,0,National,"Global: . National: A1 - Threatened species (vascular plants); B1 - Individual geographically restricted species (vascular plants)",Legislation,"Temperate or sub-polar broadleaf deciduous forest(0.7%), Temperate or sub-polar grassland(0.54%), Urban(0.86%), Mixed forest(12.82%), Water(74.81%), Temperate or sub-polar needleleaf forest(10.08%), ",Ontario,"Engelmann's Quillwort(Isoetes engelmannii), "
ON179,"Minesing Wetlands","Minesing Wetlands",44.39,-79.87,177,225,61.63,"2023-08-21 00:00:00",69,0,National,"Global: . National: Threatened invertebrates & sensitive species (A1); Geographically restricted invertebrates (individual species) (B1)","Site/area protection, Resource & habitat protection, Awareness & communications, Site/area management, Invasive/problematic species control","Barren lands(0.02%), Urban(0.42%), Water(2%), Temperate or sub-polar grassland(2.85%), Temperate or sub-polar broadleaf deciduous forest(2.57%), Cropland(8.34%), Temperate or sub-polar shrubland(5.18%), Wetland(24.43%), Mixed forest(40.27%), Temperate or sub-polar needleleaf forest(13.93%), ",Ontario,"Hine's Emerald(Somatochlora hineana), "
ON180,"Deshkan Ziibi - Thames River","Deshkan Ziibi - Thames River",42.68,-81.63,178,264,18,"2024-05-22 00:00:00",5,0,National,"Global: . National: A1 - Threatened species (amphibians and reptiles, fishes, invertebrates); B1 - Individual geographically restricted species (amphibians and reptiles, fishes, invertebrates)","Site/area protection, Habitat & natural process restoration, Species management","Barren lands(0.2%), Wetland(0.67%), Temperate or sub-polar broadleaf deciduous forest(6.5%), Mixed forest(11%), Cropland(31.34%), Urban(3.95%), Water(43.74%), Temperate or sub-polar needleleaf forest(2.59%), ",Ontario,"Threehorn Wartyback(Obliquaria reflexa), Fawnsfoot(Truncilla donaciformis), Purple Wartyback(Cyclonaias tuberculata), Spiny Softshell Turtle(Apalone spinifera), Queensnake(Regina septemvittata), Mapleleaf Mussel(Quadrula quadrula pop. 2), Eastern Sand Darter(Ammocrypta pellucida pop. 4), Northern Madtom(Noturus stigmosus), "
ON181,"Humber River","Humber River",43.86,-79.67,170,254,12.36,"2023-10-05 00:00:00",0,0,National,"Global: . National: A1 - Threatened species (invertebrates)","Site/area protection, Site/area management, Resource & habitat protection","Mixed forest(43.83%), Urban(6.37%), Barren lands(1.41%), Temperate or sub-polar grassland(0.15%), Temperate or sub-polar shrubland(0.18%), Temperate or sub-polar broadleaf deciduous forest(7.7%), Temperate or sub-polar needleleaf forest(8.13%), Cropland(28.84%), Water(2.45%), Wetland(0.93%), ",Ontario,"Rapids Clubtail(Phanogomphus quadricolor), "
ON182,"Marlborough Forest","Marlborough Forest",45.10,-75.85,95,130,67.2,"2023-10-30 00:00:00",0,0,National,"Global: . National: Threatened amphibians and reptiles, invertebrates & sensitive species (A1); Geographically restricted invertebrates (individual species) (B1)","Compliance and enforcement, Site/area management, Site/area protection","Temperate or sub-polar broadleaf deciduous forest(16.49%), Barren lands(0.08%), Wetland(3.26%), Urban(0.71%), Temperate or sub-polar needleleaf forest(34.74%), Water(0.37%), Cropland(0.27%), Temperate or sub-polar shrubland(3.61%), Temperate or sub-polar grassland(1.8%), Mixed forest(38.68%), ",Ontario,"Bogbean Buckmoth(Hemileuca maia menyanthevora), Blanding's Turtle(Emydoidea blandingii pop. 2), "
ON183,"Mississippi River","Mississippi River",45.29,-76.27,78,136,8.63,"2023-10-30 00:00:00",0,0,National,"Global: . National: Threatened invertebrates (A1)",,"Temperate or sub-polar broadleaf deciduous forest(3.52%), Temperate or sub-polar grassland(4.09%), Urban(12.56%), Mixed forest(23.41%), Temperate or sub-polar shrubland(0.09%), Water(17.74%), Cropland(29.4%), Barren lands(1.48%), Wetland(0.16%), Temperate or sub-polar needleleaf forest(7.51%), ",Ontario,"Rapids Clubtail(Phanogomphus quadricolor), "
ON184,"Murphys Point","Murphys Point",44.77,-76.24,122,155,13.25,"2023-11-22 00:00:00",84,0,National,"Global: . National: Threatened amphibians and reptiles (A1)","Site/area protection, Formal education, Site/area management, Awareness & communications, Legislation","Water(30.53%), Temperate or sub-polar shrubland(0.34%), Mixed forest(30.72%), Wetland(0.27%), Temperate or sub-polar grassland(0.95%), Temperate or sub-polar needleleaf forest(5.14%), Urban(3.64%), Temperate or sub-polar broadleaf deciduous forest(28.41%), ",Ontario,"Gray Ratsnake(Pantherophis spiloides pop. 1), "
ON185,"Ojibway Prairie Complex and Greater Park Ecosystem","Ojibway Prairie Complex and Greater Park Ecosystem",42.25,-83.07,174,185,25.89,"2024-01-22 00:00:00",2,0,National,"Global: B1 - Individual geographically restricted species (invertebrates). National: A1 - Threatened species (amphibians and reptiles, invertebrates, vascular plants); B1 - Individual geographically restricted species (amphibians and reptiles, invertebrates, vascular plants)","Habitat & natural process restoration, Legislation, Invasive/problematic species control, Site/area management, Awareness & communications, Site/area protection, Species recovery, Formal education","Temperate or sub-polar shrubland(0.1%), Barren lands(0.42%), Urban(39.58%), Cropland(14.8%), Temperate or sub-polar grassland(0.11%), Temperate or sub-polar broadleaf deciduous forest(18.74%), Temperate or sub-polar needleleaf forest(0.65%), Water(8.94%), Mixed forest(12.18%), Wetland(4.48%), ",Ontario,"a rust fly(Loxocera ojibwayensis), Dense Blazing-star(Liatris spicata), White Colicroot(Aletris farinosa), Striped Lynx Spider(Oxyopes salticus), Willowleaf Aster(Symphyotrichum praealtum), Climbing Prairie Rose(Rosa setigera), Slender Bush-clover(Lespedeza virginica), Eastern Foxsnake(Pantherophis vulpinus pop. 2), Pink Milkwort(Polygala incarnata), Tall Green Milkweed(Asclepias hirtella), Reversed Haploa Moth(Haploa reversa), Arrowfeather Threeawn Grass(Aristida purpurascens), Massasauga(Sistrurus catenatus pop. 2), Butler's Gartersnake(Thamnophis butleri), Purple Twayblade(Liparis liliifolia), Short-fruited Rush(Juncus brachycarpus), Smooth Yellow False Foxglove(Aureolaria flava), "
ON186,"White Lake Wetlands","White Lake Wetlands",45.29,-76.48,160,186,22.28,"2023-11-22 00:00:00",11,0,National,"Global: . National: Threatened invertebrates (A1); Geographically restricted invertebrates (individual species) (B1)","Site/area management, Site/area protection","Temperate or sub-polar shrubland(2.36%), Temperate or sub-polar needleleaf forest(17.4%), Water(12.95%), Mixed forest(25.18%), Wetland(14.74%), Cropland(1.03%), Temperate or sub-polar grassland(1.89%), Urban(2.19%), Temperate or sub-polar broadleaf deciduous forest(22.26%), ",Ontario,"Bogbean Buckmoth(Hemileuca maia menyanthevora), "
ON187,"Main Duck and Yorkshire Islands","Main Duck and Yorkshire Islands",43.93,-76.62,74,81,2.89,"2023-11-22 00:00:00",78,0,National,"Global: A1 - Threatened species (fungi and lichens). National: A1 - Threatened species (vascular plants)","Site/area management, Site/area protection, Species management","Temperate or sub-polar broadleaf deciduous forest(27.09%), Wetland(0.72%), Temperate or sub-polar grassland(6.65%), Cropland(0.69%), Temperate or sub-polar shrubland(7.3%), Water(32.09%), Barren lands(0.89%), Mixed forest(22.89%), Temperate or sub-polar needleleaf forest(1.67%), ",Ontario,"Goosefoot Cornsalad(Valerianella chenopodiifolia), Pale-bellied Frost Lichen(Physconia subpallida), "
ON188,"Ausable River","Ausable River",43.08,-81.75,179,245,23.34,"2023-11-22 00:00:00",7,0,National,"Global: A1 - Threatened species (invertebrates); B1 - Individual geographically restricted species (invertebrates). National: A1 - Threatened species (fishes, invertebrates, sensitive species); B1 - Individual geographically restricted species (invertebrates)","Site/area protection, Species management, Awareness & communications","Water(7.68%), Cropland(31.96%), Wetland(1.14%), Temperate or sub-polar broadleaf deciduous forest(15.14%), Barren lands(0.05%), Temperate or sub-polar needleleaf forest(3.17%), Mixed forest(39.57%), Urban(1.29%), ",Ontario,"Snuffbox(Epioblasma triquetra), Purple Wartyback(Cyclonaias tuberculata), Kidneyshell(Ptychobranchus fasciolaris), Black Redhorse(Moxostoma duquesnei), Northern Riffleshell(Epioblasma rangiana), Wavy-rayed Lampmussel(Lampsilis fasciola), "
ON189,"East Sydenham River","East Sydenham River",42.67,-82.01,175,223,13.08,"2023-11-22 00:00:00",1,0,National,"Global: Threatened invertebrates (A1). National: Threatened fishes & invertebrates (A1); Geographically restricted fishes & invertebrates (individual species) (B1)","Resource & habitat protection, Species management, Awareness & communications, Site/area protection","Cropland(39.74%), Temperate or sub-polar needleleaf forest(1.74%), Water(26.43%), Mixed forest(18.04%), Urban(6.08%), Temperate or sub-polar broadleaf deciduous forest(6.96%), Wetland(0.97%), ",Ontario,"Salamander Mussel(Simpsonaias ambigua), Snuffbox(Epioblasma triquetra), Fawnsfoot(Truncilla donaciformis), Lilliput(Toxolasma parvum), Rayed Bean(Paetulunio fabalis), Eastern Sand Darter(Ammocrypta pellucida pop. 4), Kidneyshell(Ptychobranchus fasciolaris), Mapleleaf Mussel(Quadrula quadrula pop. 2), Threehorn Wartyback(Obliquaria reflexa), Round Pigtoe(Pleurobema sintoxia), Purple Wartyback(Cyclonaias tuberculata), Northern Riffleshell(Epioblasma rangiana), "
ON190,"Charleston Lake","Charleston Lake",44.53,-76.01,82,189,170.6,"2024-04-17 00:00:00",18,0,National,"Global: . National: A1 - Threatened species (amphibians and reptiles, vascular plants)","Species management, Site/area management, Site/area protection, Invasive/problematic species control","Cropland(8.82%), Temperate or sub-polar shrubland(0.95%), Wetland(0.88%), Temperate or sub-polar broadleaf deciduous forest(14.65%), Temperate or sub-polar needleleaf forest(6.51%), Barren lands(0.23%), Mixed forest(41.35%), Temperate or sub-polar grassland(0.63%), Water(22.97%), Urban(3%), ",Ontario,"Pitch Pine(Pinus rigida), Gray Ratsnake(Pantherophis spiloides pop. 1), Blanding's Turtle(Emydoidea blandingii pop. 2), "
ON191,"Thousand Islands","Thousand Islands",44.36,-76.00,71,147,204.58,"2024-04-17 00:00:00",10,0,National,"Global: . National: A1 - Threatened species (amphibians and reptiles, fishes, vascular plants); B1 - Individual geographically restricted species (fishes, vascular plants)","Site/area management, Site/area protection, Invasive/problematic species control","Wetland(0.48%), Temperate or sub-polar grassland(0.35%), Barren lands(0.64%), Temperate or sub-polar needleleaf forest(3.86%), Water(52.96%), Temperate or sub-polar shrubland(0.46%), Unclassified(0.01%), Temperate or sub-polar broadleaf deciduous forest(5.05%), Urban(5.88%), Mixed forest(26.19%), Cropland(4.12%), ",Ontario,"American Water-willow(Justicia americana), Pitch Pine(Pinus rigida), Gray Ratsnake(Pantherophis spiloides pop. 1), Pugnose Shiner(Notropis anogenus), Deerberry(Vaccinium stamineum), Blanding's Turtle(Emydoidea blandingii pop. 2), "
ON192,Sandbanks,Sandbanks,43.92,-77.29,72,97,46.51,"2024-04-22 00:00:00",34,0,National,"Global: . National: A1 - Threatened species (amphibians and reptiles, fishes, fungi and lichens); B1 - Individual geographically restricted species (fishes)","Habitat & natural process restoration, Site/area management, Invasive/problematic species control, Awareness & communications, Species management, Resource & habitat protection, Formal education, Legislation, Policies and regulations, Site/area protection","Wetland(0.84%), Temperate or sub-polar shrubland(0.93%), Cropland(3.73%), Temperate or sub-polar broadleaf deciduous forest(1.97%), Mixed forest(3.53%), Temperate or sub-polar needleleaf forest(2.54%), Barren lands(3.43%), Urban(3.31%), Temperate or sub-polar grassland(0.69%), Water(79.04%), ",Ontario,"Blanding's Turtle(Emydoidea blandingii pop. 2), Eastern Sand Darter(Ammocrypta pellucida pop. 3), Pugnose Shiner(Notropis anogenus), Golden-eye Lichen - Great Lakes population(Teloschistes chrysophthalmus pop. 2), "
ON193,"Massassauga Point","Massassauga Point",44.15,-77.31,76,83,0.24,"2024-04-17 00:00:00",0,0,National,"Global: A1 - Threatened species (fungi and lichens). National: ","Invasive/problematic species control, Site/area management, Habitat & natural process restoration, Site/area protection, Resource & habitat protection","Urban(2.63%), Water(9%), Mixed forest(21.68%), Temperate or sub-polar needleleaf forest(65.11%), ",Ontario,"Pale-bellied Frost Lichen(Physconia subpallida), "
ON194,"Dundas Valley to Cootes Paradise","Dundas Valley to Cootes Paradise",43.30,-79.89,70,271,82.53,"2024-05-22 00:00:00",24,0,National,"Global: . National: A1 - Threatened species (amphibians and reptiles, invertebrates, vascular plants, sensitive species); B1 - Individual geographically restricted species (amphibians and reptiles, invertebrates, vascular plants, sensitive species)","Invasive/problematic species control, Site/area protection, Species recovery, Species management, Site/area management","Temperate or sub-polar broadleaf deciduous forest(10.94%), Wetland(0.45%), Temperate or sub-polar needleleaf forest(1.89%), Barren lands(1.66%), Water(3.69%), Cropland(12.58%), Mixed forest(43.14%), Temperate or sub-polar grassland(0.11%), Urban(23.81%), Temperate or sub-polar shrubland(1.72%), ",Ontario,"American Chestnut(Castanea dentata), Hoary Mountain-mint(Pycnanthemum incanum), Jefferson Salamander(Ambystoma jeffersonianum), American Columbo(Frasera caroliniensis), Bashful Clubrush(Trichophorum planifolium), Downy Yellow False Foxglove(Aureolaria virginica), Fern-leaved Yellow False Foxglove(Aureolaria pedicularia), Red Mulberry(Morus rubra), Unisexual Ambystoma - Jefferson Salamander dependent population(Ambystoma x 1), Lilliput(Toxolasma parvum), "
ON195,"Niagara Escarpment - Silver Creek to Belfountain","Niagara Escarpment - Silver Creek to Belfountain",43.80,-79.99,263,456,22.48,"2024-05-22 00:00:00",40,0,National,"Global: . National: A1 - Threatened species (amphibians and reptiles); B1 - Individual geographically restricted species (amphibians and reptiles)","Habitat & natural process restoration, Invasive/problematic species control, Site/area protection","Temperate or sub-polar broadleaf deciduous forest(28.11%), Barren lands(0.14%), Water(1.07%), Wetland(0.11%), Urban(3%), Cropland(4.56%), Temperate or sub-polar needleleaf forest(8.09%), Temperate or sub-polar shrubland(0.66%), Mixed forest(54.26%), ",Ontario,"Unisexual Ambystoma - Jefferson Salamander dependent population(Ambystoma x 1), Jefferson Salamander(Ambystoma jeffersonianum), "
ON196,Selkirk,Selkirk,42.81,-79.96,173,184,0.64,"2024-05-22 00:00:00",100,0,National,"Global: . National: A1 - Threatened species (vascular plants)","Site/area management, Site/area protection","Wetland(2.26%), Mixed forest(35.55%), Temperate or sub-polar needleleaf forest(5.07%), Water(11.59%), Temperate or sub-polar broadleaf deciduous forest(2.58%), Urban(38.1%), Cropland(4.83%), ",Ontario,"Juniper Sedge(Carex juniperorum), American Columbo(Frasera caroliniensis), "
ON197,Killarney,Killarney,46.16,-81.15,173,534,3631.15,"2024-06-26 00:00:00",29,0,National,"Global: . National: A1 - Threatened species (mammals)","Compliance and enforcement, Policies and regulations, Site/area management, Legislation, Site/area protection","Urban(1.17%), Water(14.35%), Mixed forest(40.36%), Barren lands(1.23%), Wetland(0.15%), Temperate or sub-polar shrubland(0.07%), Cropland(0.15%), Temperate or sub-polar needleleaf forest(18.71%), Temperate or sub-polar grassland(14.42%), Temperate or sub-polar broadleaf deciduous forest(9.39%), ",Ontario,"Eastern Wolf(Canis sp. cf. lycaon), "
QC003,"Lagune du Havre aux Basques et plage de l'Ouest","Lagune du Havre aux Basques et plage de l'Ouest",47.29,-61.95,1,20,34.74,"2022-08-18 00:00:00",74,0,Global,"Global: D1 - Demographic aggregations (birds). National: A1 - Threatened species (birds); D1 - Demographic aggregations (birds)","Legislation, Awareness & communications, Site/area protection","Temperate or sub-polar broadleaf deciduous forest(0.91%), Mixed forest(2.5%), Urban(0.54%), Temperate or sub-polar grassland(1.17%), Water(81.14%), Temperate or sub-polar needleleaf forest(5.54%), Wetland(2.82%), Barren lands(4.07%), Temperate or sub-polar shrubland(1.32%), ",Quebec,"Hudsonian Godwit(Limosa haemastica), Piping Plover(Charadrius melodus melodus), Black-headed Gull(Chroicocephalus ridibundus), Short-billed Dowitcher(Limnodromus griseus), "
QC037,"Baie de Gaspé","Baie de Gaspé",48.76,-64.27,0,101,268.58,"2022-08-18 00:00:00",3,0,Global,"Global: A1 - Threatened species (birds). National: D1 - Demographic aggregations (birds)","Site/area protection, Legislation","Mixed forest(3.14%), Temperate or sub-polar broadleaf deciduous forest(0.31%), Temperate or sub-polar needleleaf forest(2.4%), Cropland(0.33%), Barren lands(0.06%), Temperate or sub-polar grassland(0.33%), Wetland(0.51%), Urban(2.01%), Temperate or sub-polar shrubland(1.29%), Water(89.62%), ",Quebec,"Long-tailed Duck(Clangula hyemalis), Northern Gannet(Morus bassanus), Brant(Branta bernicla), "
QC084,"Baie des Escoumins et Grandes-Bergeronnes","Baie des Escoumins et Grandes-Bergeronnes",48.33,-69.43,0,269,339.56,"2022-08-18 00:00:00",46,0,National,"Global: . National: D1 - Demographic aggregations (birds)","Legislation, Site/area protection","Temperate or sub-polar broadleaf deciduous forest(2.29%), Temperate or sub-polar grassland(3.13%), Water(46.33%), Barren lands(0.06%), Wetland(0.09%), Urban(2.37%), Temperate or sub-polar needleleaf forest(20.42%), Cropland(3.21%), Temperate or sub-polar shrubland(4.17%), Mixed forest(17.93%), ",Quebec,"Common Eider(Somateria mollissima), Iceland Gull(Larus glaucoides), Razorbill(Alca torda), Little Gull(Hydrocoloeus minutus), Purple Sandpiper(Calidris maritima), Dovekie(Alle alle), "
QC174,"Chemin Saint-Armand","Chemin Saint-Armand",45.04,-73.02,67,75,0.01,"2024-04-17 00:00:00",0,0,National,"Global: . National: A1 - Threatened species (sensitive species)",,,Quebec,
QC175,"La Muraille","La Muraille",48.53,-64.24,109,320,0.24,"2024-06-21 00:00:00",0,0,National,"Global: A1 - Threatened species (vascular plants); B1 - Individual geographically restricted species (vascular plants). National: ","Policies and regulations, Legislation","Temperate or sub-polar needleleaf forest(36.46%), Mixed forest(45.4%), Water(4.53%), Urban(10.28%), ",Quebec,"Quebec Rockcress(Boechera quebecensis), "
QC176,"Lac de la Falaise","Lac de la Falaise",49.04,-65.29,232,493,0.3,"2024-05-26 00:00:00",0,0,National,"Global: A1 - Threatened species (vascular plants); B1 - Individual geographically restricted species (vascular plants). National: ","Legislation, Policies and regulations, Site/area management","Temperate or sub-polar needleleaf forest(70.77%), Mixed forest(27.25%), ",Quebec,"Quebec Rockcress(Boechera quebecensis), "
SK001,"Last Mountain Lake National Wildlife Area","Last Mountain Lake National Wildlife Area",51.37,-105.23,485,521,319.3,"2022-08-18 00:00:00",55,0,Global,"Global: D1 - Demographic aggregations (birds). National: A1 - Threatened species (birds); D1 - Demographic aggregations (birds)","Site/area protection, Legislation, Site/area management","Wetland(9.87%), Temperate or sub-polar needleleaf forest(0%), Urban(2.18%), Temperate or sub-polar grassland(26.21%), Water(20.08%), Temperate or sub-polar shrubland(2.06%), Temperate or sub-polar broadleaf deciduous forest(0.04%), Cropland(39.55%), ",Saskatchewan,"Piping Plover(Charadrius melodus circumcinctus), Ruddy Turnstone(Arenaria interpres), Sandhill Crane(Antigone canadensis), Red Knot(Calidris canutus), Snow Goose(Anser caerulescens), "
SK003,"Luck Lake","Luck Lake",51.07,-107.10,583,613,53.96,"2024-08-19 00:00:00",51,0,National,"Global: D1 - Demographic aggregations (birds). National: A1 - Threatened species (birds); D1 - Demographic aggregations (birds)","Resource & habitat protection, Site/area protection","Water(51.95%), Cropland(35.22%), Temperate or sub-polar grassland(10.11%), Temperate or sub-polar broadleaf deciduous forest(0.08%), Urban(1.22%), Wetland(0.28%), Temperate or sub-polar shrubland(1.14%), ",Saskatchewan,"Sandhill Crane(Antigone canadensis), Hudsonian Godwit(Limosa haemastica), Tundra Swan(Cygnus columbianus), "
SK004,"Lavallée Lake","Lavallée Lake",54.24,-106.55,540,551,28.72,"2024-08-19 00:00:00",99,0,National,"Global: D1 - Demographic aggregations (birds). National: D1 - Demographic aggregations (birds)","Site/area protection, Site/area management","Temperate or sub-polar needleleaf forest(3.45%), Temperate or sub-polar shrubland(0.3%), Wetland(0.76%), Mixed forest(0.39%), Temperate or sub-polar broadleaf deciduous forest(0.27%), Water(94.82%), ",Saskatchewan,"American White Pelican(Pelecanus erythrorhynchos), "
SK017,"Coteau Lakes","Coteau Lakes",49.04,-104.49,662,693,24.7,"2024-08-19 00:00:00",51,0,National,"Global: . National: A1 - Threatened species (birds)","Resource & habitat protection, Site/area protection","Barren lands(0.04%), Temperate or sub-polar grassland(16.81%), Urban(0.67%), Temperate or sub-polar shrubland(4.7%), Temperate or sub-polar broadleaf deciduous forest(0.08%), Wetland(0.37%), Cropland(13.51%), Water(63.81%), ",Saskatchewan,"Piping Plover(Charadrius melodus circumcinctus), "
SK018,"Big Muddy Lake","Big Muddy Lake",49.16,-104.86,659,781,204.28,"2024-08-19 00:00:00",51,0,National,"Global: . National: A1 - Threatened species (birds)","Site/area management, Resource & habitat protection, Site/area protection","Urban(1.33%), Cropland(14.45%), Temperate or sub-polar grassland(51.11%), Wetland(0.72%), Water(21.01%), Barren lands(0.37%), Temperate or sub-polar shrubland(10.08%), Temperate or sub-polar broadleaf deciduous forest(0.91%), ",Saskatchewan,"Chestnut-collared Longspur(Calcarius ornatus), Piping Plover(Charadrius melodus circumcinctus), "
SK020,"Willow Bunch Lake","Willow Bunch Lake",49.45,-105.45,661,718,64.27,"2024-08-19 00:00:00",64,0,National,"Global: . National: A1 - Threatened species (birds)","Site/area protection, Resource & habitat protection","Temperate or sub-polar broadleaf deciduous forest(0.07%), Cropland(9.42%), Temperate or sub-polar shrubland(0.97%), Water(69.4%), Barren lands(0.72%), Urban(0.89%), Temperate or sub-polar grassland(18.03%), Wetland(0.5%), ",Saskatchewan,"Piping Plover(Charadrius melodus circumcinctus), "
SK029,"Ormiston Area Saline Lakes","Ormiston Area Saline Lakes",49.71,-105.38,678,705,23.01,"2024-08-19 00:00:00",46,0,National,"Global: . National: A1 - Threatened species (birds)","Resource & habitat protection","Temperate or sub-polar shrubland(2.78%), Wetland(0.44%), Temperate or sub-polar broadleaf deciduous forest(0.04%), Urban(2.2%), Temperate or sub-polar grassland(35.95%), Barren lands(0.56%), Cropland(10.99%), Water(47.05%), ",Saskatchewan,"Piping Plover(Charadrius melodus circumcinctus), "
SK033,"Chaplin Lake","Chaplin Lake",50.30,-106.58,660,684,145.58,"2024-08-19 00:00:00",77,0,National,"Global: D1 - Demographic aggregations (birds). National: A1 - Threatened species (birds); B1 - Individual geographically restricted species (birds); D1 - Demographic aggregations (birds)","Site/area protection, Site/area management, Resource & habitat protection","Temperate or sub-polar needleleaf forest(0.05%), Wetland(1.81%), Mixed forest(0.01%), Temperate or sub-polar shrubland(0.15%), Temperate or sub-polar grassland(28.93%), Barren lands(3.73%), Cropland(5.57%), Urban(0.74%), Water(59.02%), ",Saskatchewan,"Piping Plover(Charadrius melodus), Piping Plover(Charadrius melodus circumcinctus), Sanderling(Calidris alba), "
SK034,"Reed Lake","Reed Lake",50.40,-107.08,685,718,74.4,"2022-08-18 00:00:00",22,0,Global,"Global: D1 - Demographic aggregations (birds). National: A1 - Threatened species (birds); D1 - Demographic aggregations (birds)","Legislation, Site/area protection","Temperate or sub-polar shrubland(0.21%), Temperate or sub-polar broadleaf deciduous forest(0.01%), Water(49.96%), Wetland(0.12%), Temperate or sub-polar grassland(5.04%), Cropland(37.61%), Mixed forest(0.03%), Urban(6.88%), Barren lands(0.13%), ",Saskatchewan,"Semipalmated Sandpiper(Calidris pusilla), Ross's Goose(Anser rossii), Tundra Swan(Cygnus columbianus), Hudsonian Godwit(Limosa haemastica), Sanderling(Calidris alba), "
SK055,"East Lake Diefenbaker","East Lake Diefenbaker",51.03,-106.83,522,594,245.22,"2024-08-19 00:00:00",61,0,National,"Global: D1 - Demographic aggregations (birds). National: A1 - Threatened species (birds); B1 - Individual geographically restricted species (birds)","Species recovery, Site/area management, Resource & habitat protection, Site/area protection, Invasive/problematic species control","Wetland(0.13%), Water(83.65%), Barren lands(0.07%), Temperate or sub-polar needleleaf forest(0.01%), Temperate or sub-polar grassland(7.51%), Urban(1.27%), Temperate or sub-polar shrubland(2.31%), Temperate or sub-polar broadleaf deciduous forest(0.71%), Cropland(4.35%), ",Saskatchewan,"Piping Plover(Charadrius melodus), Piping Plover(Charadrius melodus circumcinctus), "
SK118,"Grasslands National Park and Area","Grasslands National Park and Area",49.11,-107.17,739,1043,2236.49,"2024-01-23 00:00:00",65,0,National,"Global: . National: A1 - Threatened species (amphibians and reptiles, birds, fishes, fungi and lichens, invertebrates, mammals, vascular plants); B1 - Individual geographically restricted species (amphibians and reptiles, birds, fishes, fungi and lichens, invertebrates, mammals, vascular plants)","Legislation, Site/area protection, Awareness & communications, Species recovery, Site/area management, Species management, Resource & habitat protection, Linked enterprises & livelihood alternatives, Invasive/problematic species control, Habitat & natural process restoration","Temperate or sub-polar needleleaf forest(0%), Temperate or sub-polar broadleaf deciduous forest(0.16%), Water(0.74%), Barren lands(2.58%), Temperate or sub-polar shrubland(2.09%), Mixed forest(0.03%), Wetland(0.1%), Cropland(3.98%), Urban(0.53%), Temperate or sub-polar grassland(89.8%), ",Saskatchewan,"Brain Scale Lichen(Psora cerebriformis), Opposite-leaved Bahia(Picradeniopsis oppositifolia), Eastern Yellow-bellied Racer(Coluber constrictor flaviventris), Spotted-wing Bromeliad Fly(Copestylum satur), Bessey's Locoweed(Oxytropis besseyi), Mormon Metalmark(Apodemia mormo pop. 2), Sprague's Pipit(Anthus spragueii), Chestnut-collared Longspur(Calcarius ornatus), Desert Vagabond Lichen(Circinaria hispida), Burrowing Owl(Athene cunicularia), Plains Bison(Bison bison bison), Greater Short-horned Lizard(Phrynosoma hernandesi), Plains Minnow(Hybognathus placitus), Black-tailed Prairie Dog(Cynomys ludovicianus), Greater Sage-Grouse(Centrocercus urophasianus urophasianus), Striped Bromeliad Fly(Copestylum vittatum), "
SK128,"Leaf Lake","Leaf Lake",53.02,-102.14,318,376,30.24,"2023-07-21 00:00:00",1,0,Global,"Global: A1 - Threatened species (vascular plants). National: ",,"Temperate or sub-polar shrubland(0.05%), Temperate or sub-polar needleleaf forest(1.27%), Temperate or sub-polar broadleaf deciduous forest(3.11%), Mixed forest(0.15%), Wetland(5.03%), Water(90.38%), ",Saskatchewan,"Lori's Water-lily(Nymphaea loriana), "
SK129,"Athabasca Sand Dunes","Athabasca Sand Dunes",59.06,-108.70,199,383,2661.98,"2023-07-26 00:00:00",78,0,National,"Global: Threatened vascular plants (A1); Geographically restricted vascular plants (individual species) (B1). National: Threatened vascular plants (A1); Geographically restricted vascular plants (individual species) (B1)","Policies and regulations, Resource & habitat protection, Legislation, Site/area protection","Temperate or sub-polar grassland(29.25%), Temperate or sub-polar broadleaf deciduous forest(0.03%), Barren lands(18.22%), Temperate or sub-polar shrubland(2.78%), Temperate or sub-polar needleleaf forest(13.13%), Wetland(8.22%), Water(20.1%), Sub-polar taiga needleleaf forest(7.94%), Mixed forest(0.33%), ",Saskatchewan,"Athabasca Thrift(Armeria maritima ssp. interior), Floccose Tansy(Tanacetum bipinnatum var. 1), Tyrrell's Willow(Salix tyrrellii), Turnor's Willow(Salix turnorii), Blanket-leaved Willow(Salix silicicola), Sand-dune Short-capsuled Willow(Salix brachycarpa var. psammophila), Large-headed Woolly Yarrow(Achillea millefolium var. megacephala), Mackenzie Hairgrass(Deschampsia mackenzieana), Lake Athabasca Starwort(Stellaria longipes ssp. arenicola), "
SK130,"Burstall Sandhills","Burstall Sandhills",50.74,-109.94,714,746,118.52,"2023-07-27 00:00:00",74,0,National,"Global: . National: A1 - Threatened species (invertebrates, mammals, vascular plants); B1 - Individual geographically restricted species (vascular plants)",,"Temperate or sub-polar shrubland(0.47%), Cropland(0.03%), Barren lands(0.06%), Water(0.06%), Urban(0.06%), Temperate or sub-polar grassland(99.32%), ",Saskatchewan,"Gold-edged Gem Moth(Schinia avemensis), Slender Mouse-ear-cress(Crucihimalaya virgata), Ord's Kangaroo Rat(Dipodomys ordii), Spiny Milk-vetch(Astragalus kentrophyta), Dusky Dune Moth(Copablepharon longipenne), "
SK131,"Tunstall Sandhills","Tunstall Sandhills",50.15,-109.70,710,762,47.5,"2023-07-27 00:00:00",94,0,National,"Global: . National: A1 - Threatened species (invertebrates, mammals, vascular plants)",,"Temperate or sub-polar grassland(95.33%), Cropland(0.21%), Barren lands(0.14%), Temperate or sub-polar shrubland(0.15%), Water(0.19%), Urban(3.97%), ",Saskatchewan,"Gold-edged Gem Moth(Schinia avemensis), Ord's Kangaroo Rat(Dipodomys ordii), Dusky Dune Moth(Copablepharon longipenne), Spiny Milk-vetch(Astragalus kentrophyta), "
SK132,"Webb Sandhills","Webb Sandhills",50.25,-108.20,722,784,43.67,"2023-07-27 00:00:00",94,0,National,"Global: . National: A1 - Threatened species (invertebrates, mammals); B1 - Individual geographically restricted species (vascular plants)","Resource & habitat protection, Site/area protection, Awareness & communications","Temperate or sub-polar shrubland(11.61%), Temperate or sub-polar broadleaf deciduous forest(0.31%), Barren lands(0.17%), Cropland(0.25%), Wetland(0.03%), Temperate or sub-polar grassland(84.64%), Water(0.48%), Temperate or sub-polar needleleaf forest(0.04%), Urban(2.47%), ",Saskatchewan,"Dusky Dune Moth(Copablepharon longipenne), Ord's Kangaroo Rat(Dipodomys ordii), Smooth Goosefoot(Chenopodium subglabrum), Gold-edged Gem Moth(Schinia avemensis), "
SK133,"Dundurn Sandhills and CFB Dundurn","Dundurn Sandhills and CFB Dundurn",51.81,-106.62,481,537,238.9,"2023-10-05 00:00:00",71,0,National,"Global: . National: A1 - Threatened species (invertebrates, vascular plants); B1 - Individual geographically restricted species (invertebrates, vascular plants)","Site/area management, Site/area protection","Cropland(0.74%), Wetland(0.35%), Mixed forest(0%), Temperate or sub-polar grassland(67.65%), Barren lands(0.04%), Temperate or sub-polar needleleaf forest(0.01%), Temperate or sub-polar shrubland(29.1%), Temperate or sub-polar broadleaf deciduous forest(0.71%), Urban(1.39%), Water(0.01%), ",Saskatchewan,"Hairy Prairie-clover(Dalea villosa), Gibson’s Big Sand Tiger Beetle(Cicindela formosa gibsoni), Dusky Dune Moth(Copablepharon longipenne), Pale Yellow Dune Moth(Copablepharon grandis), "
SK134,"Cramersburg Sandhills","Cramersburg Sandhills",50.88,-108.63,556,649,177.32,"2024-01-23 00:00:00",47,0,National,"Global: . National: A1 - Threatened species (invertebrates, mammals, vascular plants); B1 - Individual geographically restricted species (vascular plants)","Site/area protection, Resource & habitat protection","Barren lands(0.02%), Temperate or sub-polar broadleaf deciduous forest(0.12%), Temperate or sub-polar shrubland(6.39%), Wetland(0%), Urban(0.25%), Temperate or sub-polar grassland(92.95%), Water(0.26%), Temperate or sub-polar needleleaf forest(0.01%), ",Saskatchewan,"Dusky Dune Moth(Copablepharon longipenne), Ord's Kangaroo Rat(Dipodomys ordii), Spiny Milk-vetch(Astragalus kentrophyta), Gold-edged Gem Moth(Schinia avemensis), Slender Mouse-ear-cress(Crucihimalaya virgata), "
SK136,"Buffalograss Grasslands","Buffalograss Grasslands",49.13,-103.07,531,576,44.18,"2024-02-15 00:00:00",40,0,National,"Global: . National: A1 - Threatened species (vascular plants); B1 - Individual geographically restricted species (vascular plants)","Site/area protection","Temperate or sub-polar broadleaf deciduous forest(0.95%), Temperate or sub-polar shrubland(2.17%), Cropland(21.59%), Barren lands(0.62%), Wetland(0.36%), Water(11.41%), Temperate or sub-polar grassland(56.49%), Urban(6.41%), ",Saskatchewan,"Buffalograss(Bouteloua dactyloides), "
YK005,"Qikiqtaruk - Herschel Island","Qikiqtaruk - Herschel Island",69.59,-139.08,0,175,141.66,"2023-03-02 00:00:00",79,0,National,"Global: . National: A1 - Threatened species (invertebrates)","Site/area management, Awareness & communications, Site/area protection, Resource & habitat protection","Wetland(2.27%), Sub-polar taiga needleleaf forest(0.05%), Temperate or sub-polar shrubland(0.03%), Water(23.98%), Urban(0.01%), Temperate or sub-polar needleleaf forest(0.33%), Sub-polar or polar grassland-lichen-moss(8.66%), Barren lands(0.52%), Sub-polar or polar shrubland-lichen-moss(64.16%), ",Yukon,"Four-dotted Alpine(Erebia youngi herscheli), "
YK016,"M'Clintock Bay to Lewes River Marsh","M'Clintock Bay to Lewes River Marsh",60.56,-134.54,434,1433,170.16,"2022-08-18 00:00:00",12,0,Global,"Global: D1 - Demographic aggregations (birds). National: D1 - Demographic aggregations (birds)","Legislation, Awareness & communications","Temperate or sub-polar broadleaf deciduous forest(0.52%), Urban(1.48%), Temperate or sub-polar grassland(3.17%), Temperate or sub-polar shrubland(2.01%), Barren lands(2.31%), Mixed forest(5.95%), Water(18.4%), Temperate or sub-polar needleleaf forest(66.16%), ",Yukon,"Tundra Swan(Cygnus columbianus), Trumpeter Swan(Cygnus buccinator), "
YK030,"Beaver Creek","Beaver Creek",62.01,-140.93,845,1137,23.04,"2021-06-28 00:00:00",0,0,National,"Global: . National: B1 - Individual geographically restricted species (vascular plants)",,"Temperate or sub-polar needleleaf forest(52.34%), Temperate or sub-polar broadleaf deciduous forest(0.18%), Temperate or sub-polar shrubland(1.26%), Water(7.39%), Barren lands(0.61%), Mixed forest(9.14%), Temperate or sub-polar grassland(21.15%), Wetland(7.93%), ",Yukon,"Spiked Saxifrage(Micranthes spicata), "
YK031,"Carcross Dunes","Carcross Dunes",60.18,-134.72,659,739,5.67,"2021-06-28 00:00:00",0,0,National,"Global: . National: B1 - Individual geographically restricted species (invertebrates, vascular plants)",,"Temperate or sub-polar grassland(10.53%), Urban(11.86%), Barren lands(20.24%), Temperate or sub-polar shrubland(4.6%), Water(23.91%), Temperate or sub-polar needleleaf forest(17.73%), Temperate or sub-polar broadleaf deciduous forest(0.95%), Mixed forest(10.17%), ",Yukon,"Baikal Sedge(Carex sabulosa), Dune Tachinid Fly(Germaria angustata), "
YK032,"Dezadeash Lake","Dezadeash Lake",60.46,-136.99,618,1041,108.27,"2021-06-28 00:00:00",0,0,National,"Global: . National: A1 - Threatened species (fishes); B1 - Individual geographically restricted species (fishes)",,"Barren lands(0.1%), Urban(0.24%), Temperate or sub-polar broadleaf deciduous forest(3.4%), Temperate or sub-polar grassland(0.77%), Water(73.12%), Mixed forest(7.48%), Temperate or sub-polar needleleaf forest(14.13%), Cropland(0.01%), Temperate or sub-polar shrubland(0.75%), ",Yukon,"European Whitefish(Coregonus lavaretus pop. 4), European Whitefish(Coregonus lavaretus pop. 3), "
YK033,"Kluane National Park and Reserve: A’ą̈y Chù","Kluane National Park and Reserve: A’ą̈y Chù",61.00,-138.63,782,2344,67.56,"2023-01-27 00:00:00",98,0,National,"Global: A1 - Threatened species (vascular plants); B1 - Individual geographically restricted species (vascular plants). National: ","Site/area protection, Site/area management","Mixed forest(7.67%), Temperate or sub-polar broadleaf deciduous forest(1.05%), Water(3.05%), Barren lands(29.82%), Temperate or sub-polar shrubland(17.48%), Temperate or sub-polar grassland(3.1%), Urban(0.06%), Temperate or sub-polar needleleaf forest(36.96%), Wetland(0.05%), ",Yukon,"Yukon Wormwood(Artemisia woodii), "
YK034,"Kluane National Park and Reserve: Dezadeash-Kaskawulsh Confluence","Kluane National Park and Reserve: Dezadeash-Kaskawulsh Confluence",60.67,-137.80,577,608,1.13,"2021-06-28 00:00:00",100,0,National,"Global: . National: B1 - Individual geographically restricted species (invertebrates, vascular plants)","Site/area protection","Temperate or sub-polar needleleaf forest(5.36%), Mixed forest(2.04%), Barren lands(71.24%), Temperate or sub-polar shrubland(0.86%), Temperate or sub-polar grassland(20.33%), ",Yukon,"Dune Tachinid Fly(Germaria angustata), Baikal Sedge(Carex sabulosa), "
YK035,"Kluane National Park and Reserve: Vulcan Mountain","Kluane National Park and Reserve: Vulcan Mountain",60.85,-138.49,821,1970,32.33,"2023-01-27 00:00:00",99,0,National,"Global: A1 - Threatened species (vascular plants); B1 - Individual geographically restricted species (vascular plants). National: ","Site/area management, Site/area protection","Temperate or sub-polar broadleaf deciduous forest(1.7%), Water(0.58%), Temperate or sub-polar shrubland(21.44%), Mixed forest(3.13%), Barren lands(58.06%), Temperate or sub-polar grassland(2.22%), Temperate or sub-polar needleleaf forest(8.43%), ",Yukon,"Yukon Wormwood(Artemisia woodii), "
YK036,"Koidern Mountain","Koidern Mountain",62.06,-140.36,1100,1657,27.36,"2021-06-28 00:00:00",0,0,National,"Global: . National: B1 - Individual geographically restricted species (vascular plants)",,"Temperate or sub-polar needleleaf forest(18.36%), Water(0.03%), Temperate or sub-polar shrubland(45.86%), Temperate or sub-polar broadleaf deciduous forest(0.04%), Wetland(1.21%), Temperate or sub-polar grassland(6.63%), Barren lands(0.58%), Mixed forest(27.29%), ",Yukon,"Spiked Saxifrage(Micranthes spicata), "
YK037,"Kusawa Territorial Park: Takhini River","Kusawa Territorial Park: Takhini River",60.67,-136.06,659,756,1.55,"2021-06-28 00:00:00",100,0,National,"Global: . National: B1 - Individual geographically restricted species (invertebrates, vascular plants)","Site/area protection","Water(8.47%), Temperate or sub-polar grassland(2.49%), Barren lands(53.1%), Temperate or sub-polar needleleaf forest(35.89%), ",Yukon,"Dune Tachinid Fly(Germaria angustata), Baikal Sedge(Carex sabulosa), "
YK038,"Little Teslin Lake","Little Teslin Lake",60.48,-133.39,761,818,9.16,"2021-06-28 00:00:00",0,0,National,"Global: . National: A1 - Threatened species (fishes); B1 - Individual geographically restricted species (fishes)",,"Mixed forest(2.81%), Temperate or sub-polar shrubland(0.33%), Temperate or sub-polar needleleaf forest(57.76%), Temperate or sub-polar grassland(1.61%), Urban(1.63%), Barren lands(0.72%), Water(35.07%), ",Yukon,"Lake Whitefish(Coregonus clupeaformis pop. 6), European Whitefish(Coregonus lavaretus pop. 2), "
YK039,"Squanga, Seaforth and Teenah Lakes","Squanga, Seaforth and Teenah Lakes",60.46,-133.59,761,947,56.54,"2022-10-19 00:00:00",0,0,National,"Global: . National: A1 - Threatened species (fishes); B1 - Individual geographically restricted species (fishes)",,"Urban(0.28%), Temperate or sub-polar needleleaf forest(51.69%), Wetland(0.01%), Temperate or sub-polar grassland(2.24%), Temperate or sub-polar shrubland(1.65%), Temperate or sub-polar broadleaf deciduous forest(0.18%), Water(36.45%), Mixed forest(6.92%), Barren lands(0.57%), ",Yukon,"European Whitefish(Coregonus lavaretus pop. 1), Lake Whitefish(Coregonus clupeaformis pop. 3), "
YK040,"Wellesley Peak","Wellesley Peak",62.08,-140.20,1143,1721,23.75,"2021-06-28 00:00:00",0,0,National,"Global: . National: B1 - Individual geographically restricted species (vascular plants)",,"Temperate or sub-polar grassland(17.76%), Temperate or sub-polar broadleaf deciduous forest(0.03%), Temperate or sub-polar shrubland(44.85%), Temperate or sub-polar needleleaf forest(15.63%), Wetland(1.19%), Barren lands(4.59%), Mixed forest(15.94%), ",Yukon,"Spiked Saxifrage(Micranthes spicata), "
YK041,Aishihik,Aishihik,61.61,-137.54,905,1218,37.96,"2022-10-15 00:00:00",0,0,Global,"Global: A1 - Threatened species (vascular plants); B1 - Individual geographically restricted species (vascular plants). National: A1 - Threatened species (vascular plants); B1 - Individual geographically restricted species (vascular plants)",,"Temperate or sub-polar needleleaf forest(65.06%), Mixed forest(5.84%), Barren lands(2.88%), Temperate or sub-polar shrubland(1.41%), Urban(0.61%), Temperate or sub-polar grassland(17.96%), Wetland(0.9%), Temperate or sub-polar broadleaf deciduous forest(0.06%), Water(5.26%), ",Yukon,"Yukon Draba(Draba yukonensis), Yukon Wild Buckwheat(Eriogonum flavum var. aquilinum), "
YK042,"Alsek Meadow","Alsek Meadow",60.78,-137.67,602,651,2.66,"2022-10-15 00:00:00",0,0,Global,"Global: A1 - Threatened species (vascular plants); B1 - Individual geographically restricted species (vascular plants). National: ","Species management","Barren lands(10.62%), Temperate or sub-polar broadleaf deciduous forest(10.23%), Temperate or sub-polar grassland(13.32%), Mixed forest(31.91%), Urban(1.34%), Temperate or sub-polar shrubland(18.1%), Temperate or sub-polar needleleaf forest(14.39%), ",Yukon,"Yukon Draba(Draba yukonensis), "
YK043,"Apex Mountain","Apex Mountain",62.44,-138.01,1315,1778,1.2,"2022-03-25 00:00:00",0,0,Global,"Global: B1 - Individual geographically restricted species (vascular plants). National: ",,"Temperate or sub-polar shrubland(34.51%), Temperate or sub-polar grassland(29.55%), Barren lands(34.99%), Wetland(0.48%), ",Yukon,"Yukon Podistera(Podistera yukonensis), "
YK044,"Chandindu River","Chandindu River",64.25,-139.59,308,817,1.56,"2022-03-25 00:00:00",0,0,Global,"Global: B1 - Individual geographically restricted species (vascular plants). National: ",,"Wetland(31.42%), Temperate or sub-polar needleleaf forest(3.47%), Temperate or sub-polar grassland(11.42%), Mixed forest(2.03%), Temperate or sub-polar shrubland(24.24%), Water(0.81%), Barren lands(26.48%), ",Yukon,"Yukon Podistera(Podistera yukonensis), "
YK045,"Fifteenmile River","Fifteenmile River",64.51,-140.00,1218,1376,0.2,"2022-03-25 00:00:00",0,0,Global,"Global: B1 - Individual geographically restricted species (vascular plants). National: ",,"Barren lands(87.31%), Wetland(7.17%), ",Yukon,"Yukon Podistera(Podistera yukonensis), "
YK046,"Incised Peak","Incised Peak",61.62,-136.74,1481,1549,0.08,"2022-03-25 00:00:00",0,0,Global,"Global: B1 - Individual geographically restricted species (vascular plants). National: ",,"Temperate or sub-polar grassland(23.2%), Barren lands(76.27%), ",Yukon,"Yukon Podistera(Podistera yukonensis), "
YK047,Minto,Minto,62.58,-136.81,437,1040,51.44,"2022-03-25 00:00:00",0,0,Global,"Global: B1 - Individual geographically restricted species (vascular plants). National: ",,"Wetland(3.95%), Temperate or sub-polar needleleaf forest(19.96%), Water(0.13%), Temperate or sub-polar broadleaf deciduous forest(0.7%), Temperate or sub-polar grassland(40.16%), Urban(1.68%), Mixed forest(10.41%), Temperate or sub-polar shrubland(15.39%), Barren lands(7.62%), ",Yukon,"Yukon Goldenweed(Nestotus macleanii), "
YK048,"Ross River","Ross River",61.93,-132.49,678,1475,123.42,"2022-03-25 00:00:00",0,0,Global,"Global: B1 - Individual geographically restricted species (vascular plants). National: ",,"Water(6.25%), Urban(2.02%), Temperate or sub-polar shrubland(6.96%), Temperate or sub-polar grassland(2.11%), Barren lands(1.46%), Mixed forest(7.77%), Temperate or sub-polar needleleaf forest(70.5%), Temperate or sub-polar broadleaf deciduous forest(2.93%), ",Yukon,"Yukon Goldenweed(Nestotus macleanii), "
YK049,"Tombstone Territorial Park","Tombstone Territorial Park",64.57,-138.67,0,4405,2047.87,"2022-10-15 00:00:00",100,0,Global,"Global: B1 - Individual geographically restricted species (mammals). National: ","Site/area management, Site/area protection","Barren lands(24.03%), Sub-polar or polar grassland-lichen-moss(0%), Sub-polar taiga needleleaf forest(0%), Wetland(20.59%), Mixed forest(1.88%), Temperate or sub-polar grassland(14.3%), Urban(0.01%), Temperate or sub-polar shrubland(24.42%), Temperate or sub-polar broadleaf deciduous forest(0%), Temperate or sub-polar needleleaf forest(13.77%), Water(1%), ",Yukon,"Ogilvie Mountains Collared Lemming(Dicrostonyx nunatakensis), "
YK050,"Ivvavik National Park","Ivvavik National Park",69.11,-139.85,0,1765,9775.23,"2023-05-09 00:00:00",100,0,National,"Global: D1 - Demographic aggregations (mammals). National: ","Policies and regulations, Legislation, Site/area management, Site/area protection, Species management, Resource & habitat protection","Wetland(9.42%), Sub-polar taiga needleleaf forest(0.11%), Temperate or sub-polar shrubland(0.79%), Sub-polar or polar shrubland-lichen-moss(48.02%), Water(3.94%), Temperate or sub-polar grassland(0.15%), Mixed forest(0.02%), Temperate or sub-polar needleleaf forest(3.1%), Sub-polar or polar grassland-lichen-moss(11.05%), Barren lands(23.41%), Urban(0%), ",Yukon,"Caribou(Rangifer tarandus), "
YK051,"Babbage River - Fish Hole Creek","Babbage River - Fish Hole Creek",68.62,-138.72,276,366,3.84,"2023-05-09 00:00:00",0,0,National,"Global: . National: D1 - Demographic aggregations (fishes)","Policies and regulations, Species management, Compliance and enforcement","Wetland(8.15%), Sub-polar or polar shrubland-lichen-moss(38.07%), Water(43.91%), Sub-polar or polar grassland-lichen-moss(6.83%), Barren lands(1.48%), Temperate or sub-polar shrubland(0.57%), Temperate or sub-polar needleleaf forest(0.87%), ",Yukon,"Dolly Varden(Salvelinus malma pop. 3), "
